<?xml version="1.0" encoding="UTF-8"?>
<gpx creator="StravaGPX" version="1.1" xmlns="http://www.topografix.com/GPX/1/1" xmlns:xsi="http://www.w3.org/2001/XMLSchema-instance" xsi:schemaLocation="http://www.topografix.com/GPX/1/1 http://www.topografix.com/GPX/1/1/gpx.xsd">
 <metadata>
  <name>UTEM 50</name>
  <author>
   <name>Andrii Stalnyi</name>
   <link href="https://www.strava.com/athletes/63517812"/>
  </author>
  <copyright author="OpenStreetMap contributors">
   <year>2020</year>
   <license>https://www.openstreetmap.org/copyright</license>
  </copyright>
  <link href="https://www.strava.com/routes/3512424188936421708"/>
 </metadata>
 <trk>
  <name>UTEM 50</name>
  <link href="https://www.strava.com/routes/3512424188936421708"/>
  <type>cycling</type>
  <trkseg>
   <trkpt lat="50.56226" lon="30.2174">
    <ele>143.09000000000003</ele>
   </trkpt>
   <trkpt lat="50.562250000000006" lon="30.216900000000003">
    <ele>143.74</ele>
   </trkpt>
   <trkpt lat="50.562258024578476" lon="30.21570200079844">
    <ele>144.65</ele>
   </trkpt>
   <trkpt lat="50.56226603686776" lon="30.214504001189216">
    <ele>145.94</ele>
   </trkpt>
   <trkpt lat="50.56227403686786" lon="30.213306001172942">
    <ele>146.68</ele>
   </trkpt>
   <trkpt lat="50.56228202457879" lon="30.21210800075025">
    <ele>148.17000000000002</ele>
   </trkpt>
   <trkpt lat="50.562290000000004" lon="30.210910000000002">
    <ele>148.88</ele>
   </trkpt>
   <trkpt lat="50.56237" lon="30.21083">
    <ele>149.27</ele>
   </trkpt>
   <trkpt lat="50.56237" lon="30.210710000000002">
    <ele>149.27</ele>
   </trkpt>
   <trkpt lat="50.56235" lon="30.21065">
    <ele>149.27</ele>
   </trkpt>
   <trkpt lat="50.562290000000004" lon="30.210620000000002">
    <ele>149.3</ele>
   </trkpt>
   <trkpt lat="50.56228000449922" lon="30.209594999899792">
    <ele>150.27</ele>
   </trkpt>
   <trkpt lat="50.562270000000005" lon="30.20857">
    <ele>150.18</ele>
   </trkpt>
   <trkpt lat="50.56235" lon="30.208520000000004">
    <ele>149.86</ele>
   </trkpt>
   <trkpt lat="50.56237" lon="30.208470000000002">
    <ele>149.86</ele>
   </trkpt>
   <trkpt lat="50.562380000000005" lon="30.208370000000002">
    <ele>149.56</ele>
   </trkpt>
   <trkpt lat="50.562360000000005" lon="30.20829">
    <ele>149.56</ele>
   </trkpt>
   <trkpt lat="50.56230000000001" lon="30.20822">
    <ele>149.85</ele>
   </trkpt>
   <trkpt lat="50.56223000000001" lon="30.20822">
    <ele>149.85</ele>
   </trkpt>
   <trkpt lat="50.56217" lon="30.208280000000002">
    <ele>150.75000000000003</ele>
   </trkpt>
   <trkpt lat="50.56208" lon="30.208180000000002">
    <ele>150.75000000000003</ele>
   </trkpt>
   <trkpt lat="50.561240000000005" lon="30.207710000000002">
    <ele>151.47000000000003</ele>
   </trkpt>
   <trkpt lat="50.56057500148526" lon="30.207367485490902">
    <ele>151.84</ele>
   </trkpt>
   <trkpt lat="50.55991000196599" lon="30.20702498064749">
    <ele>152.65</ele>
   </trkpt>
   <trkpt lat="50.559245001442235" lon="30.206682485469265">
    <ele>154.22000000000003</ele>
   </trkpt>
   <trkpt lat="50.558580000000006" lon="30.20634">
    <ele>155.12</ele>
   </trkpt>
   <trkpt lat="50.5578066680158" lon="30.20593665340875">
    <ele>155.21</ele>
   </trkpt>
   <trkpt lat="50.55703333463855" lon="30.205533320052787">
    <ele>155.33</ele>
   </trkpt>
   <trkpt lat="50.55626" lon="30.205130000000004">
    <ele>156.93</ele>
   </trkpt>
   <trkpt lat="50.5559" lon="30.204970000000003">
    <ele>156.89</ele>
   </trkpt>
   <trkpt lat="50.555800000000005" lon="30.204940000000004">
    <ele>156.65</ele>
   </trkpt>
   <trkpt lat="50.55521" lon="30.204900000000002">
    <ele>155.94000000000003</ele>
   </trkpt>
   <trkpt lat="50.55503" lon="30.204860000000004">
    <ele>155.96</ele>
   </trkpt>
   <trkpt lat="50.554250000580794" lon="30.204596657947835">
    <ele>156.42</ele>
   </trkpt>
   <trkpt lat="50.553470000567756" lon="30.204333324610282">
    <ele>155.9</ele>
   </trkpt>
   <trkpt lat="50.552690000000005" lon="30.20407">
    <ele>155.2</ele>
   </trkpt>
   <trkpt lat="50.552510000000005" lon="30.20408">
    <ele>155.2</ele>
   </trkpt>
   <trkpt lat="50.552440000000004" lon="30.204110000000004">
    <ele>155.22000000000003</ele>
   </trkpt>
   <trkpt lat="50.55209000000001" lon="30.204430000000002">
    <ele>155.05</ele>
   </trkpt>
   <trkpt lat="50.552020000000006" lon="30.204430000000002">
    <ele>155.05</ele>
   </trkpt>
   <trkpt lat="50.55194" lon="30.204470000000004">
    <ele>154.89</ele>
   </trkpt>
   <trkpt lat="50.55137500116427" lon="30.2050000063878">
    <ele>154.55</ele>
   </trkpt>
   <trkpt lat="50.550810000000006" lon="30.205530000000003">
    <ele>154.36</ele>
   </trkpt>
   <trkpt lat="50.550447512264626" lon="30.20455247742837">
    <ele>154.2</ele>
   </trkpt>
   <trkpt lat="50.55008501634665" lon="30.20357496988828">
    <ele>154.44000000000003</ele>
   </trkpt>
   <trkpt lat="50.549722512246305" lon="30.202597477379662">
    <ele>155.18</ele>
   </trkpt>
   <trkpt lat="50.54936000000001" lon="30.201620000000002">
    <ele>155.67</ele>
   </trkpt>
   <trkpt lat="50.54912000147577" lon="30.20100999659639">
    <ele>155.73000000000002</ele>
   </trkpt>
   <trkpt lat="50.548880000000004" lon="30.200400000000002">
    <ele>155.86</ele>
   </trkpt>
   <trkpt lat="50.548880000000004" lon="30.200390000000002">
    <ele>155.86</ele>
   </trkpt>
   <trkpt lat="50.54845502693911" lon="30.199268282790584">
    <ele>155.88000000000002</ele>
   </trkpt>
   <trkpt lat="50.548030043103395" lon="30.198146585801926">
    <ele>156.78</ele>
   </trkpt>
   <trkpt lat="50.54760504849324" lon="30.197024909033885">
    <ele>157.08</ele>
   </trkpt>
   <trkpt lat="50.54718004310901" lon="30.195903252486303">
    <ele>157.17</ele>
   </trkpt>
   <trkpt lat="50.546755026951026" lon="30.194781616159016">
    <ele>157.75</ele>
   </trkpt>
   <trkpt lat="50.546330000000005" lon="30.19366">
    <ele>158.34</ele>
   </trkpt>
   <trkpt lat="50.545950000000005" lon="30.192610000000002">
    <ele>159.47</ele>
   </trkpt>
   <trkpt lat="50.54557334144997" lon="30.19163665112613">
    <ele>159.93</ele>
   </trkpt>
   <trkpt lat="50.54519667478679" lon="30.190663317802045">
    <ele>159.91000000000003</ele>
   </trkpt>
   <trkpt lat="50.54482" lon="30.189690000000002">
    <ele>159.99</ele>
   </trkpt>
   <trkpt lat="50.544456675524394" lon="30.188673317684003">
    <ele>160.07000000000002</ele>
   </trkpt>
   <trkpt lat="50.54409334219709" lon="30.18765665103448">
    <ele>160.26000000000002</ele>
   </trkpt>
   <trkpt lat="50.543730000000004" lon="30.186640000000004">
    <ele>160.60000000000002</ele>
   </trkpt>
   <trkpt lat="50.543620000000004" lon="30.18615">
    <ele>160.69</ele>
   </trkpt>
   <trkpt lat="50.543510000000005" lon="30.185440000000003">
    <ele>160.56</ele>
   </trkpt>
   <trkpt lat="50.543440000000004" lon="30.18474">
    <ele>160.17000000000002</ele>
   </trkpt>
   <trkpt lat="50.543440000000004" lon="30.18437">
    <ele>160.10000000000002</ele>
   </trkpt>
   <trkpt lat="50.54346" lon="30.184030000000003">
    <ele>160.07999999999998</ele>
   </trkpt>
   <trkpt lat="50.54356000000001" lon="30.183100000000003">
    <ele>159.95000000000002</ele>
   </trkpt>
   <trkpt lat="50.54368" lon="30.18248">
    <ele>159.76000000000002</ele>
   </trkpt>
   <trkpt lat="50.543940000000006" lon="30.181590000000003">
    <ele>159.79000000000002</ele>
   </trkpt>
   <trkpt lat="50.5443246107114" lon="30.18035555522329">
    <ele>159.67000000000002</ele>
   </trkpt>
   <trkpt lat="50.54470920837269" lon="30.179121090310407">
    <ele>159.84</ele>
   </trkpt>
   <trkpt lat="50.54509379298352" lon="30.177886605261445">
    <ele>160.05</ele>
   </trkpt>
   <trkpt lat="50.545478364543484" lon="30.176652100076478">
    <ele>160.01000000000002</ele>
   </trkpt>
   <trkpt lat="50.54586292305219" lon="30.175417574755578">
    <ele>160.15</ele>
   </trkpt>
   <trkpt lat="50.54624746850926" lon="30.174183029298838">
    <ele>160.15</ele>
   </trkpt>
   <trkpt lat="50.546632000914286" lon="30.172948463706327">
    <ele>160.19000000000003</ele>
   </trkpt>
   <trkpt lat="50.54701652026686" lon="30.171713877978128">
    <ele>160.12</ele>
   </trkpt>
   <trkpt lat="50.54740102656665" lon="30.170479272114324">
    <ele>159.85000000000002</ele>
   </trkpt>
   <trkpt lat="50.54778551981322" lon="30.169244646114997">
    <ele>159.81</ele>
   </trkpt>
   <trkpt lat="50.548170000000006" lon="30.168010000000002">
    <ele>159.72</ele>
   </trkpt>
   <trkpt lat="50.54853500617156" lon="30.166810009270332">
    <ele>159.54000000000002</ele>
   </trkpt>
   <trkpt lat="50.5489" lon="30.16561">
    <ele>159.48000000000002</ele>
   </trkpt>
   <trkpt lat="50.5491850032914" lon="30.164730005394635">
    <ele>159.31</ele>
   </trkpt>
   <trkpt lat="50.54947000000001" lon="30.163850000000004">
    <ele>159.12</ele>
   </trkpt>
   <trkpt lat="50.5498314634817" lon="30.162684339330234">
    <ele>158.35000000000002</ele>
   </trkpt>
   <trkpt lat="50.55019291532758" lon="30.161518660787134">
    <ele>158.04000000000002</ele>
   </trkpt>
   <trkpt lat="50.5505543555373" lon="30.16035296437078">
    <ele>156.83</ele>
   </trkpt>
   <trkpt lat="50.55091578411052" lon="30.159187250081228">
    <ele>155.02</ele>
   </trkpt>
   <trkpt lat="50.55127720104694" lon="30.158021517918566">
    <ele>151.11</ele>
   </trkpt>
   <trkpt lat="50.55163860634621" lon="30.156855767882863">
    <ele>148.37</ele>
   </trkpt>
   <trkpt lat="50.55200000000001" lon="30.155690000000003">
    <ele>146.26</ele>
   </trkpt>
   <trkpt lat="50.55235001038656" lon="30.15459001625452">
    <ele>145.86</ele>
   </trkpt>
   <trkpt lat="50.55270001041175" lon="30.153490016175677">
    <ele>145.81000000000003</ele>
   </trkpt>
   <trkpt lat="50.553050000000006" lon="30.152390000000004">
    <ele>146.61</ele>
   </trkpt>
   <trkpt lat="50.55344502071617" lon="30.15112003192777">
    <ele>148.4</ele>
   </trkpt>
   <trkpt lat="50.55384002762119" lon="30.14985004257233">
    <ele>152.97000000000003</ele>
   </trkpt>
   <trkpt lat="50.5542350207147" lon="30.148580031933758">
    <ele>155.0</ele>
   </trkpt>
   <trkpt lat="50.55463" lon="30.14731">
    <ele>156.78</ele>
   </trkpt>
   <trkpt lat="50.554943342366734" lon="30.146283346957315">
    <ele>158.47</ele>
   </trkpt>
   <trkpt lat="50.55525667570765" lon="30.145256680265934">
    <ele>159.35000000000002</ele>
   </trkpt>
   <trkpt lat="50.55557" lon="30.144230000000004">
    <ele>159.69000000000003</ele>
   </trkpt>
   <trkpt lat="50.55592500530642" lon="30.143120008262237">
    <ele>160.20000000000002</ele>
   </trkpt>
   <trkpt lat="50.55628" lon="30.142010000000003">
    <ele>160.09</ele>
   </trkpt>
   <trkpt lat="50.55662667761107" lon="30.140880016587747">
    <ele>160.07000000000002</ele>
   </trkpt>
   <trkpt lat="50.5569733442882" lon="30.139750016553933">
    <ele>160.26000000000002</ele>
   </trkpt>
   <trkpt lat="50.557320000000004" lon="30.138620000000003">
    <ele>160.41000000000003</ele>
   </trkpt>
   <trkpt lat="50.55761667390765" lon="30.137700011601837">
    <ele>160.57999999999998</ele>
   </trkpt>
   <trkpt lat="50.55791334056771" lon="30.13678001162251">
    <ele>160.87</ele>
   </trkpt>
   <trkpt lat="50.55821" lon="30.13586">
    <ele>161.39000000000001</ele>
   </trkpt>
   <trkpt lat="50.558550005633286" lon="30.134715008191645">
    <ele>162.20000000000002</ele>
   </trkpt>
   <trkpt lat="50.558890000000005" lon="30.133570000000002">
    <ele>162.65</ele>
   </trkpt>
   <trkpt lat="50.55922402393325" lon="30.13238803348147">
    <ele>162.78</ele>
   </trkpt>
   <trkpt lat="50.559558035903656" lon="30.131206050209805">
    <ele>162.39000000000001</ele>
   </trkpt>
   <trkpt lat="50.55989203591086" lon="30.13002405018519">
    <ele>162.15</ele>
   </trkpt>
   <trkpt lat="50.560226023954606" lon="30.12884203340778">
    <ele>161.60000000000002</ele>
   </trkpt>
   <trkpt lat="50.56056" lon="30.127660000000002">
    <ele>161.01000000000002</ele>
   </trkpt>
   <trkpt lat="50.56088717802029" lon="30.12649004873299">
    <ele>160.42000000000002</ele>
   </trkpt>
   <trkpt lat="50.561214344319815" lon="30.125320081222064">
    <ele>160.4</ele>
   </trkpt>
   <trkpt lat="50.56154149889832" lon="30.124150097467396">
    <ele>160.3</ele>
   </trkpt>
   <trkpt lat="50.56186864175547" lon="30.12298009746916">
    <ele>160.39000000000001</ele>
   </trkpt>
   <trkpt lat="50.562195772890995" lon="30.12181008122751">
    <ele>160.92000000000002</ele>
   </trkpt>
   <trkpt lat="50.562522892304564" lon="30.12064004874263">
    <ele>160.97</ele>
   </trkpt>
   <trkpt lat="50.562850000000005" lon="30.119470000000003">
    <ele>161.4</ele>
   </trkpt>
   <trkpt lat="50.56319379682318" lon="30.118220063836908">
    <ele>161.56</ele>
   </trkpt>
   <trkpt lat="50.56353758026845" lon="30.116970109436384">
    <ele>161.78</ele>
   </trkpt>
   <trkpt lat="50.56388135033542" lon="30.115720136798668">
    <ele>161.57000000000002</ele>
   </trkpt>
   <trkpt lat="50.56422510702377" lon="30.114470145923963">
    <ele>161.0</ele>
   </trkpt>
   <trkpt lat="50.56456885033311" lon="30.113220136812508">
    <ele>160.88000000000002</ele>
   </trkpt>
   <trkpt lat="50.5649125802631" lon="30.111970109464508">
    <ele>159.88000000000002</ele>
   </trkpt>
   <trkpt lat="50.56525629681337" lon="30.11072006388019">
    <ele>159.53</ele>
   </trkpt>
   <trkpt lat="50.5656" lon="30.10947">
    <ele>159.25</ele>
   </trkpt>
   <trkpt lat="50.565956701558974" lon="30.108193381638753">
    <ele>158.81</ele>
   </trkpt>
   <trkpt lat="50.56631338916305" lon="30.106916743949693">
    <ele>158.45000000000002</ele>
   </trkpt>
   <trkpt lat="50.56667006281181" lon="30.105640086933047">
    <ele>157.74</ele>
   </trkpt>
   <trkpt lat="50.56702672250489" lon="30.104363410589027">
    <ele>157.09</ele>
   </trkpt>
   <trkpt lat="50.5673833682419" lon="30.10308671491786">
    <ele>156.9</ele>
   </trkpt>
   <trkpt lat="50.56774000000001" lon="30.101810000000004">
    <ele>157.33</ele>
   </trkpt>
   <trkpt lat="50.56806501773423" lon="30.10063502430644">
    <ele>156.9</ele>
   </trkpt>
   <trkpt lat="50.56839002364741" lon="30.099460032402778">
    <ele>156.84</ele>
   </trkpt>
   <trkpt lat="50.568715017739244" lon="30.09828502428921">
    <ele>156.38000000000002</ele>
   </trkpt>
   <trkpt lat="50.56904" lon="30.09711">
    <ele>155.86</ele>
   </trkpt>
   <trkpt lat="50.56933" lon="30.096110000000003">
    <ele>155.54000000000002</ele>
   </trkpt>
   <trkpt lat="50.569660000000006" lon="30.09504">
    <ele>154.87</ele>
   </trkpt>
   <trkpt lat="50.56992500238301" lon="30.094280004532216">
    <ele>153.61</ele>
   </trkpt>
   <trkpt lat="50.570190000000004" lon="30.09352">
    <ele>152.00000000000003</ele>
   </trkpt>
   <trkpt lat="50.57064893532195" lon="30.09235564630446">
    <ele>148.93</ele>
   </trkpt>
   <trkpt lat="50.57110785903573" lon="30.09119126992441">
    <ele>146.13</ele>
   </trkpt>
   <trkpt lat="50.57156677114096" lon="30.090026870859607">
    <ele>145.54</ele>
   </trkpt>
   <trkpt lat="50.57202567163721" lon="30.08886244910982">
    <ele>146.24</ele>
   </trkpt>
   <trkpt lat="50.57248456052409" lon="30.08769800467481">
    <ele>148.00000000000003</ele>
   </trkpt>
   <trkpt lat="50.572943437801165" lon="30.086533537554335">
    <ele>150.13000000000002</ele>
   </trkpt>
   <trkpt lat="50.573402303468" lon="30.085369047748163">
    <ele>153.16000000000003</ele>
   </trkpt>
   <trkpt lat="50.573861157524206" lon="30.084204535256053">
    <ele>156.31</ele>
   </trkpt>
   <trkpt lat="50.57432000000001" lon="30.083040000000004">
    <ele>157.60999999999999</ele>
   </trkpt>
   <trkpt lat="50.57465000590337" lon="30.08220667844963">
    <ele>157.5</ele>
   </trkpt>
   <trkpt lat="50.574980005861036" lon="30.08137334522338">
    <ele>157.35999999999999</ele>
   </trkpt>
   <trkpt lat="50.57531" lon="30.080540000000003">
    <ele>156.22000000000003</ele>
   </trkpt>
   <trkpt lat="50.57561500272753" lon="30.079735005335472">
    <ele>155.63000000000002</ele>
   </trkpt>
   <trkpt lat="50.57592" lon="30.078930000000003">
    <ele>155.39</ele>
   </trkpt>
   <trkpt lat="50.57637500489656" lon="30.077860010346864">
    <ele>154.82000000000002</ele>
   </trkpt>
   <trkpt lat="50.57683" lon="30.076790000000003">
    <ele>154.68</ele>
   </trkpt>
   <trkpt lat="50.57731002534742" lon="30.07570172213359">
    <ele>155.31</ele>
   </trkpt>
   <trkpt lat="50.57779004055451" lon="30.074613422085157">
    <ele>156.02</ele>
   </trkpt>
   <trkpt lat="50.57827004562087" lon="30.073525099854354">
    <ele>156.83</ele>
   </trkpt>
   <trkpt lat="50.57875004054612" lon="30.072436755440812">
    <ele>157.8</ele>
   </trkpt>
   <trkpt lat="50.57923002532986" lon="30.071348388844168">
    <ele>158.5</ele>
   </trkpt>
   <trkpt lat="50.579710000000006" lon="30.07026">
    <ele>159.39000000000001</ele>
   </trkpt>
   <trkpt lat="50.580188787416944" lon="30.069142579527046">
    <ele>160.37</ele>
   </trkpt>
   <trkpt lat="50.58066756414339" lon="30.0680251363345">
    <ele>160.86</ele>
   </trkpt>
   <trkpt lat="50.58114633017893" lon="30.06690767042202">
    <ele>161.16000000000003</ele>
   </trkpt>
   <trkpt lat="50.58162508552317" lon="30.065790181789254">
    <ele>161.57000000000002</ele>
   </trkpt>
   <trkpt lat="50.58210383017571" lon="30.064672670435876">
    <ele>161.92000000000002</ele>
   </trkpt>
   <trkpt lat="50.582582564136175" lon="30.063555136361543">
    <ele>162.63000000000002</ele>
   </trkpt>
   <trkpt lat="50.583061287404135" lon="30.062437579565906">
    <ele>163.0</ele>
   </trkpt>
   <trkpt lat="50.583540000000006" lon="30.061320000000002">
    <ele>163.38000000000002</ele>
   </trkpt>
   <trkpt lat="50.58380500187966" lon="30.060655003775835">
    <ele>163.86</ele>
   </trkpt>
   <trkpt lat="50.584070000000004" lon="30.059990000000003">
    <ele>164.06</ele>
   </trkpt>
   <trkpt lat="50.58434000267248" lon="30.05920500440039">
    <ele>164.52</ele>
   </trkpt>
   <trkpt lat="50.584610000000005" lon="30.05842">
    <ele>164.8</ele>
   </trkpt>
   <trkpt lat="50.584950000000006" lon="30.05732">
    <ele>165.36</ele>
   </trkpt>
   <trkpt lat="50.585280000000004" lon="30.056020000000004">
    <ele>165.64000000000001</ele>
   </trkpt>
   <trkpt lat="50.58550500436814" lon="30.05501500460317">
    <ele>165.59</ele>
   </trkpt>
   <trkpt lat="50.585730000000005" lon="30.05401">
    <ele>165.99</ele>
   </trkpt>
   <trkpt lat="50.58598867028335" lon="30.052677238018884">
    <ele>166.38</ele>
   </trkpt>
   <trkpt lat="50.586247325359516" lon="30.051344461395107">
    <ele>166.94</ele>
   </trkpt>
   <trkpt lat="50.58650596522821" lon="30.05001167012924">
    <ele>167.55</ele>
   </trkpt>
   <trkpt lat="50.58676458988912" lon="30.048678864221838">
    <ele>168.4</ele>
   </trkpt>
   <trkpt lat="50.58702319934192" lon="30.04734604367347">
    <ele>169.12</ele>
   </trkpt>
   <trkpt lat="50.587281793586335" lon="30.046013208484705">
    <ele>169.48000000000002</ele>
   </trkpt>
   <trkpt lat="50.58754037262204" lon="30.044680358656105">
    <ele>169.82000000000002</ele>
   </trkpt>
   <trkpt lat="50.58779893644872" lon="30.043347494188236">
    <ele>170.23000000000002</ele>
   </trkpt>
   <trkpt lat="50.58805748506609" lon="30.042014615081662">
    <ele>170.42000000000002</ele>
   </trkpt>
   <trkpt lat="50.58831601847381" lon="30.04068172133696">
    <ele>170.46</ele>
   </trkpt>
   <trkpt lat="50.588574536671615" lon="30.03934881295468">
    <ele>170.44</ele>
   </trkpt>
   <trkpt lat="50.58883303965916" lon="30.038015889935394">
    <ele>169.96000000000004</ele>
   </trkpt>
   <trkpt lat="50.589091527436175" lon="30.036682952279673">
    <ele>169.59</ele>
   </trkpt>
   <trkpt lat="50.58935" lon="30.03535">
    <ele>169.46000000000004</ele>
   </trkpt>
   <trkpt lat="50.58958667785515" lon="30.034206678174023">
    <ele>169.38</ele>
   </trkpt>
   <trkpt lat="50.58982334451927" lon="30.033063344853154">
    <ele>169.37</ele>
   </trkpt>
   <trkpt lat="50.59006" lon="30.031920000000003">
    <ele>169.33</ele>
   </trkpt>
   <trkpt lat="50.59023500194516" lon="30.03123500279426">
    <ele>169.29000000000002</ele>
   </trkpt>
   <trkpt lat="50.590410000000006" lon="30.03055">
    <ele>169.18000000000004</ele>
   </trkpt>
   <trkpt lat="50.59060500200398" lon="30.029865002853207">
    <ele>169.12</ele>
   </trkpt>
   <trkpt lat="50.5908" lon="30.029180000000004">
    <ele>169.11</ele>
   </trkpt>
   <trkpt lat="50.59111000000001" lon="30.028200000000002">
    <ele>169.1</ele>
   </trkpt>
   <trkpt lat="50.591406672487054" lon="30.027373343835585">
    <ele>169.11</ele>
   </trkpt>
   <trkpt lat="50.5917033391238" lon="30.02654667725242">
    <ele>168.99</ele>
   </trkpt>
   <trkpt lat="50.592000000000006" lon="30.025720000000003">
    <ele>168.81</ele>
   </trkpt>
   <trkpt lat="50.59237500307722" lon="30.024870006805838">
    <ele>168.53</ele>
   </trkpt>
   <trkpt lat="50.59275" lon="30.024020000000004">
    <ele>168.23000000000002</ele>
   </trkpt>
   <trkpt lat="50.593277528629635" lon="30.023042576674424">
    <ele>167.64000000000001</ele>
   </trkpt>
   <trkpt lat="50.59380504908043" lon="30.022065131442286">
    <ele>167.33</ele>
   </trkpt>
   <trkpt lat="50.59433256135205" lon="30.02108766430303">
    <ele>167.28</ele>
   </trkpt>
   <trkpt lat="50.59486006544413" lon="30.020110175256093">
    <ele>166.70000000000002</ele>
   </trkpt>
   <trkpt lat="50.59538756135638" lon="30.01913266430091">
    <ele>166.37</ele>
   </trkpt>
   <trkpt lat="50.59591504908844" lon="30.018155131436924">
    <ele>166.33</ele>
   </trkpt>
   <trkpt lat="50.596442528639976" lon="30.017177576663567">
    <ele>166.56</ele>
   </trkpt>
   <trkpt lat="50.596970000000006" lon="30.0162">
    <ele>166.68</ele>
   </trkpt>
   <trkpt lat="50.597630000074055" lon="30.01614000083602">
    <ele>166.67000000000002</ele>
   </trkpt>
   <trkpt lat="50.598290000000006" lon="30.016080000000002">
    <ele>166.88</ele>
   </trkpt>
   <trkpt lat="50.598980000150654" lon="30.015975004616738">
    <ele>166.9</ele>
   </trkpt>
   <trkpt lat="50.59967000020691" lon="30.015870006154838">
    <ele>167.18</ele>
   </trkpt>
   <trkpt lat="50.6003600001688" lon="30.015765004614146">
    <ele>167.62</ele>
   </trkpt>
   <trkpt lat="50.60105" lon="30.015660000000004">
    <ele>168.04000000000002</ele>
   </trkpt>
   <trkpt lat="50.60191000013387" lon="30.01554500630957">
    <ele>167.8</ele>
   </trkpt>
   <trkpt lat="50.60277000015456" lon="30.01543000841615">
    <ele>167.58</ele>
   </trkpt>
   <trkpt lat="50.60363000006201" lon="30.015315006319465">
    <ele>167.71000000000004</ele>
   </trkpt>
   <trkpt lat="50.604490000000006" lon="30.015200000000004">
    <ele>168.03</ele>
   </trkpt>
   <trkpt lat="50.60530333344753" lon="30.015076670932743">
    <ele>168.26000000000002</ele>
   </trkpt>
   <trkpt lat="50.60611666676485" lon="30.014953337601924">
    <ele>168.25</ele>
   </trkpt>
   <trkpt lat="50.606930000000006" lon="30.014830000000003">
    <ele>167.55</ele>
   </trkpt>
   <trkpt lat="50.607714285952746" lon="30.014731438431568">
    <ele>167.10000000000002</ele>
   </trkpt>
   <trkpt lat="50.60849857182234" lon="30.014632873577213">
    <ele>167.02</ele>
   </trkpt>
   <trkpt lat="50.609282857608754" lon="30.01453430543675">
    <ele>167.04000000000002</ele>
   </trkpt>
   <trkpt lat="50.610067143312016" lon="30.014435734009968">
    <ele>167.22</ele>
   </trkpt>
   <trkpt lat="50.610851428932094" lon="30.014337159296673">
    <ele>167.58</ele>
   </trkpt>
   <trkpt lat="50.61163571446899" lon="30.014238581296652">
    <ele>167.94</ele>
   </trkpt>
   <trkpt lat="50.61242000000001" lon="30.01414">
    <ele>167.88</ele>
   </trkpt>
   <trkpt lat="50.613125000153026" lon="30.014035001557858">
    <ele>167.68</ele>
   </trkpt>
   <trkpt lat="50.61383000000001" lon="30.013930000000002">
    <ele>167.45000000000002</ele>
   </trkpt>
   <trkpt lat="50.61464333345646" lon="30.013826670236064">
    <ele>166.75</ele>
   </trkpt>
   <trkpt lat="50.615456666821515" lon="30.013723336898778">
    <ele>165.59</ele>
   </trkpt>
   <trkpt lat="50.61627000000001" lon="30.013620000000003">
    <ele>165.06</ele>
   </trkpt>
   <trkpt lat="50.61713285752032" lon="30.013500013207718">
    <ele>164.34</ele>
   </trkpt>
   <trkpt lat="50.61799571491739" lon="30.013380022012996">
    <ele>163.44</ele>
   </trkpt>
   <trkpt lat="50.618858572191236" lon="30.01326002641555">
    <ele>162.95000000000002</ele>
   </trkpt>
   <trkpt lat="50.61972142934181" lon="30.01314002641507">
    <ele>162.0</ele>
   </trkpt>
   <trkpt lat="50.62058428636914" lon="30.01302002201126">
    <ele>161.20000000000002</ele>
   </trkpt>
   <trkpt lat="50.62144714327319" lon="30.01290001320384">
    <ele>160.56</ele>
   </trkpt>
   <trkpt lat="50.622310000000006" lon="30.012780000000003">
    <ele>160.16000000000003</ele>
   </trkpt>
   <trkpt lat="50.622844999991344" lon="30.01269500097333">
    <ele>159.55</ele>
   </trkpt>
   <trkpt lat="50.623380000000004" lon="30.012610000000002">
    <ele>159.3</ele>
   </trkpt>
   <trkpt lat="50.62359000000001" lon="30.012600000000003">
    <ele>159.02</ele>
   </trkpt>
   <trkpt lat="50.62368000000001" lon="30.01264">
    <ele>158.83</ele>
   </trkpt>
   <trkpt lat="50.623760000000004" lon="30.012680000000003">
    <ele>158.75</ele>
   </trkpt>
   <trkpt lat="50.62395" lon="30.012860000000003">
    <ele>158.27</ele>
   </trkpt>
   <trkpt lat="50.62432000112173" lon="30.013339996399193">
    <ele>157.35999999999999</ele>
   </trkpt>
   <trkpt lat="50.62469" lon="30.013820000000003">
    <ele>157.02</ele>
   </trkpt>
   <trkpt lat="50.62485" lon="30.014000000000003">
    <ele>156.87</ele>
   </trkpt>
   <trkpt lat="50.62542333430097" lon="30.014343324935943">
    <ele>156.51000000000002</ele>
   </trkpt>
   <trkpt lat="50.62599666759308" lon="30.014686658244457">
    <ele>155.86</ele>
   </trkpt>
   <trkpt lat="50.62657" lon="30.015030000000003">
    <ele>155.64</ele>
   </trkpt>
   <trkpt lat="50.6272066679398" lon="30.015423322649532">
    <ele>155.23</ele>
   </trkpt>
   <trkpt lat="50.62784333455547" lon="30.015816655951177">
    <ele>154.94000000000003</ele>
   </trkpt>
   <trkpt lat="50.62848" lon="30.01621">
    <ele>154.66000000000003</ele>
   </trkpt>
   <trkpt lat="50.62923833789444" lon="30.0166716294336">
    <ele>154.27</ele>
   </trkpt>
   <trkpt lat="50.62999667396495" lon="30.01713327375951">
    <ele>153.84</ele>
   </trkpt>
   <trkpt lat="50.630755008211395" lon="30.01759493297859">
    <ele>153.56</ele>
   </trkpt>
   <trkpt lat="50.63151334063372" lon="30.01805660709169">
    <ele>153.19000000000003</ele>
   </trkpt>
   <trkpt lat="50.63227167123176" lon="30.01851829609965">
    <ele>152.84</ele>
   </trkpt>
   <trkpt lat="50.633030000000005" lon="30.018980000000003">
    <ele>151.64000000000001</ele>
   </trkpt>
   <trkpt lat="50.63353000000001" lon="30.019250000000003">
    <ele>150.82</ele>
   </trkpt>
   <trkpt lat="50.633520000000004" lon="30.019250000000003">
    <ele>150.84</ele>
   </trkpt>
   <trkpt lat="50.63393000000001" lon="30.01948">
    <ele>149.79</ele>
   </trkpt>
   <trkpt lat="50.634170000000005" lon="30.01958">
    <ele>149.46</ele>
   </trkpt>
   <trkpt lat="50.634460000000004" lon="30.019640000000003">
    <ele>149.11</ele>
   </trkpt>
   <trkpt lat="50.634780000000006" lon="30.019640000000003">
    <ele>148.72000000000003</ele>
   </trkpt>
   <trkpt lat="50.63523000000001" lon="30.019560000000002">
    <ele>148.1</ele>
   </trkpt>
   <trkpt lat="50.63575500020781" lon="30.019345002397326">
    <ele>147.9</ele>
   </trkpt>
   <trkpt lat="50.636280000000006" lon="30.019130000000004">
    <ele>147.27</ele>
   </trkpt>
   <trkpt lat="50.63644000000001" lon="30.01911">
    <ele>147.20000000000002</ele>
   </trkpt>
   <trkpt lat="50.63656" lon="30.019170000000003">
    <ele>147.20000000000002</ele>
   </trkpt>
   <trkpt lat="50.636700000000005" lon="30.01929">
    <ele>146.33</ele>
   </trkpt>
   <trkpt lat="50.637265001434" lon="30.019849993359475">
    <ele>145.02</ele>
   </trkpt>
   <trkpt lat="50.63783" lon="30.020410000000002">
    <ele>144.73000000000002</ele>
   </trkpt>
   <trkpt lat="50.63823000067343" lon="30.020789996818674">
    <ele>144.55</ele>
   </trkpt>
   <trkpt lat="50.638630000000006" lon="30.02117">
    <ele>144.69</ele>
   </trkpt>
   <trkpt lat="50.63870000000001" lon="30.02127">
    <ele>144.94</ele>
   </trkpt>
   <trkpt lat="50.638740000000006" lon="30.021390000000004">
    <ele>144.94</ele>
   </trkpt>
   <trkpt lat="50.638740000000006" lon="30.02156">
    <ele>144.94</ele>
   </trkpt>
   <trkpt lat="50.63844" lon="30.022560000000002">
    <ele>145.67000000000002</ele>
   </trkpt>
   <trkpt lat="50.63839" lon="30.02278">
    <ele>146.20000000000002</ele>
   </trkpt>
   <trkpt lat="50.63839" lon="30.022900000000003">
    <ele>146.20000000000002</ele>
   </trkpt>
   <trkpt lat="50.63841000000001" lon="30.02296">
    <ele>146.4</ele>
   </trkpt>
   <trkpt lat="50.638470000000005" lon="30.02305">
    <ele>146.55</ele>
   </trkpt>
   <trkpt lat="50.63857" lon="30.02315">
    <ele>146.65</ele>
   </trkpt>
   <trkpt lat="50.639120000000005" lon="30.02362">
    <ele>148.88</ele>
   </trkpt>
   <trkpt lat="50.63927" lon="30.023670000000003">
    <ele>149.18</ele>
   </trkpt>
   <trkpt lat="50.639450000000004" lon="30.023660000000003">
    <ele>149.3</ele>
   </trkpt>
   <trkpt lat="50.63967" lon="30.023570000000003">
    <ele>149.3</ele>
   </trkpt>
   <trkpt lat="50.64043" lon="30.02315">
    <ele>149.93</ele>
   </trkpt>
   <trkpt lat="50.64059" lon="30.023030000000002">
    <ele>150.07</ele>
   </trkpt>
   <trkpt lat="50.6413" lon="30.022350000000003">
    <ele>149.05</ele>
   </trkpt>
   <trkpt lat="50.64146" lon="30.02222">
    <ele>147.62</ele>
   </trkpt>
   <trkpt lat="50.641940000000005" lon="30.021880000000003">
    <ele>146.19</ele>
   </trkpt>
   <trkpt lat="50.64218" lon="30.02175">
    <ele>146.03000000000003</ele>
   </trkpt>
   <trkpt lat="50.6428" lon="30.021510000000003">
    <ele>147.29</ele>
   </trkpt>
   <trkpt lat="50.643" lon="30.021400000000003">
    <ele>147.50000000000003</ele>
   </trkpt>
   <trkpt lat="50.643190000000004" lon="30.021200000000004">
    <ele>147.3</ele>
   </trkpt>
   <trkpt lat="50.643840000000004" lon="30.020400000000002">
    <ele>145.93</ele>
   </trkpt>
   <trkpt lat="50.64405000000001" lon="30.020180000000003">
    <ele>146.12</ele>
   </trkpt>
   <trkpt lat="50.644825006119575" lon="30.01949003413454">
    <ele>148.21</ele>
   </trkpt>
   <trkpt lat="50.64560000816504" lon="30.01880004550871">
    <ele>148.93</ele>
   </trkpt>
   <trkpt lat="50.646375006136175" lon="30.018110034121243">
    <ele>149.75000000000003</ele>
   </trkpt>
   <trkpt lat="50.64715" lon="30.01742">
    <ele>150.47000000000003</ele>
   </trkpt>
   <trkpt lat="50.64775000127926" lon="30.01690500645285">
    <ele>151.3</ele>
   </trkpt>
   <trkpt lat="50.64835" lon="30.01639">
    <ele>151.59</ele>
   </trkpt>
   <trkpt lat="50.648815000483964" lon="30.016040003494375">
    <ele>151.41000000000003</ele>
   </trkpt>
   <trkpt lat="50.649280000000005" lon="30.015690000000003">
    <ele>150.86</ele>
   </trkpt>
   <trkpt lat="50.64969000000001" lon="30.01555">
    <ele>150.59</ele>
   </trkpt>
   <trkpt lat="50.65007000000001" lon="30.015510000000003">
    <ele>150.00000000000003</ele>
   </trkpt>
   <trkpt lat="50.650290000000005" lon="30.015470000000004">
    <ele>149.49</ele>
   </trkpt>
   <trkpt lat="50.65052000000001" lon="30.015380000000004">
    <ele>149.49</ele>
   </trkpt>
   <trkpt lat="50.651250000000005" lon="30.0149">
    <ele>148.3</ele>
   </trkpt>
   <trkpt lat="50.65203333688654" lon="30.014260021304906">
    <ele>146.79</ele>
   </trkpt>
   <trkpt lat="50.65281667026807" lon="30.013620021265968">
    <ele>145.09000000000003</ele>
   </trkpt>
   <trkpt lat="50.653600000000004" lon="30.012980000000002">
    <ele>143.54</ele>
   </trkpt>
   <trkpt lat="50.654140000000005" lon="30.012480000000004">
    <ele>142.82</ele>
   </trkpt>
   <trkpt lat="50.65431" lon="30.01236">
    <ele>142.58</ele>
   </trkpt>
   <trkpt lat="50.65447" lon="30.012290000000004">
    <ele>142.39000000000001</ele>
   </trkpt>
   <trkpt lat="50.654560000000004" lon="30.012280000000004">
    <ele>142.14000000000001</ele>
   </trkpt>
   <trkpt lat="50.654740000000004" lon="30.012300000000003">
    <ele>141.81</ele>
   </trkpt>
   <trkpt lat="50.655179999966414" lon="30.01246999834677">
    <ele>141.73000000000002</ele>
   </trkpt>
   <trkpt lat="50.655620000000006" lon="30.01264">
    <ele>142.1</ele>
   </trkpt>
   <trkpt lat="50.656447501767" lon="30.01301248030536">
    <ele>140.5</ele>
   </trkpt>
   <trkpt lat="50.65727500234673" lon="30.01338497373572">
    <ele>137.96</ele>
   </trkpt>
   <trkpt lat="50.65810250173912" lon="30.013757480291936">
    <ele>136.51000000000002</ele>
   </trkpt>
   <trkpt lat="50.658930000000005" lon="30.01413">
    <ele>135.96</ele>
   </trkpt>
   <trkpt lat="50.65941499980499" lon="30.01424499875273">
    <ele>135.89000000000001</ele>
   </trkpt>
   <trkpt lat="50.65990000000001" lon="30.014360000000003">
    <ele>135.81</ele>
   </trkpt>
   <trkpt lat="50.66037500020365" lon="30.01443499926977">
    <ele>135.84</ele>
   </trkpt>
   <trkpt lat="50.66085" lon="30.01451">
    <ele>135.96</ele>
   </trkpt>
   <trkpt lat="50.6614650000333" lon="30.014629998422937">
    <ele>135.70000000000002</ele>
   </trkpt>
   <trkpt lat="50.66208" lon="30.014750000000003">
    <ele>135.43</ele>
   </trkpt>
   <trkpt lat="50.66248" lon="30.014910000000004">
    <ele>135.01000000000002</ele>
   </trkpt>
   <trkpt lat="50.66315800296406" lon="30.015325975975582">
    <ele>134.12</ele>
   </trkpt>
   <trkpt lat="50.66383600444747" lon="30.015741963963553">
    <ele>133.87</ele>
   </trkpt>
   <trkpt lat="50.66451400445015" lon="30.016157963964528">
    <ele>133.98000000000002</ele>
   </trkpt>
   <trkpt lat="50.66519200297199" lon="30.01657397597912">
    <ele>133.55</ele>
   </trkpt>
   <trkpt lat="50.665870000000005" lon="30.016990000000003">
    <ele>133.5</ele>
   </trkpt>
   <trkpt lat="50.66621000000001" lon="30.01723">
    <ele>133.38</ele>
   </trkpt>
   <trkpt lat="50.66666000000001" lon="30.0176">
    <ele>133.45000000000002</ele>
   </trkpt>
   <trkpt lat="50.667310001505314" lon="30.018204991567757">
    <ele>133.41</ele>
   </trkpt>
   <trkpt lat="50.66796" lon="30.018810000000002">
    <ele>133.51000000000002</ele>
   </trkpt>
   <trkpt lat="50.66866500183762" lon="30.019454990367237">
    <ele>133.65</ele>
   </trkpt>
   <trkpt lat="50.66937" lon="30.020100000000003">
    <ele>134.41</ele>
   </trkpt>
   <trkpt lat="50.669936668764535" lon="30.02058998820847">
    <ele>134.79000000000002</ele>
   </trkpt>
   <trkpt lat="50.67050333547475" lon="30.02107998824594">
    <ele>134.8</ele>
   </trkpt>
   <trkpt lat="50.67107000000001" lon="30.021570000000004">
    <ele>134.76000000000002</ele>
   </trkpt>
   <trkpt lat="50.67107000000001" lon="30.02156">
    <ele>134.76000000000002</ele>
   </trkpt>
   <trkpt lat="50.671580000000006" lon="30.02201">
    <ele>134.73000000000002</ele>
   </trkpt>
   <trkpt lat="50.671980000000005" lon="30.022270000000002">
    <ele>134.57000000000002</ele>
   </trkpt>
   <trkpt lat="50.67217" lon="30.022350000000003">
    <ele>133.94</ele>
   </trkpt>
   <trkpt lat="50.673010000000005" lon="30.022600000000004">
    <ele>133.03</ele>
   </trkpt>
   <trkpt lat="50.673485000154805" lon="30.02279499802352">
    <ele>132.55</ele>
   </trkpt>
   <trkpt lat="50.67396" lon="30.022990000000004">
    <ele>132.38</ele>
   </trkpt>
   <trkpt lat="50.67392" lon="30.023370000000003">
    <ele>132.79000000000002</ele>
   </trkpt>
   <trkpt lat="50.67391000000001" lon="30.02379">
    <ele>133.58</ele>
   </trkpt>
   <trkpt lat="50.67392" lon="30.024900000000002">
    <ele>135.96</ele>
   </trkpt>
   <trkpt lat="50.673960015517096" lon="30.026246664392556">
    <ele>138.3</ele>
   </trkpt>
   <trkpt lat="50.674000015517755" lon="30.027593331080702">
    <ele>140.13</ele>
   </trkpt>
   <trkpt lat="50.674040000000005" lon="30.028940000000002">
    <ele>140.62000000000003</ele>
   </trkpt>
   <trkpt lat="50.67399" lon="30.02971">
    <ele>140.90000000000003</ele>
   </trkpt>
   <trkpt lat="50.673860000000005" lon="30.030260000000002">
    <ele>140.97</ele>
   </trkpt>
   <trkpt lat="50.67340674162447" lon="30.031378817905743">
    <ele>140.72</ele>
   </trkpt>
   <trkpt lat="50.67295347253904" lon="30.032497614204782">
    <ele>141.58</ele>
   </trkpt>
   <trkpt lat="50.67250019274409" lon="30.033616388897357">
    <ele>143.37000000000003</ele>
   </trkpt>
   <trkpt lat="50.67204690224003" lon="30.03473514198373">
    <ele>144.16</ele>
   </trkpt>
   <trkpt lat="50.67159360102718" lon="30.035853873464156">
    <ele>145.37</ele>
   </trkpt>
   <trkpt lat="50.671140289105985" lon="30.0369725833389">
    <ele>146.4</ele>
   </trkpt>
   <trkpt lat="50.67068696647679" lon="30.038091271608213">
    <ele>147.33</ele>
   </trkpt>
   <trkpt lat="50.67023363313995" lon="30.03920993827234">
    <ele>147.72000000000003</ele>
   </trkpt>
   <trkpt lat="50.66978028909592" lon="30.040328583331544">
    <ele>148.24</ele>
   </trkpt>
   <trkpt lat="50.669326934345015" lon="30.04144720678608">
    <ele>148.21</ele>
   </trkpt>
   <trkpt lat="50.66887356888762" lon="30.04256580863622">
    <ele>147.65</ele>
   </trkpt>
   <trkpt lat="50.66842019272415" lon="30.043684388882188">
    <ele>147.06000000000003</ele>
   </trkpt>
   <trkpt lat="50.66796680585495" lon="30.044802947524264">
    <ele>147.08</ele>
   </trkpt>
   <trkpt lat="50.66751340828042" lon="30.045921484562687">
    <ele>147.52</ele>
   </trkpt>
   <trkpt lat="50.667060000000006" lon="30.047040000000003">
    <ele>148.13</ele>
   </trkpt>
   <trkpt lat="50.66659146077443" lon="30.048160067057633">
    <ele>149.52</ele>
   </trkpt>
   <trkpt lat="50.66612291081452" lon="30.049280111760627">
    <ele>150.61</ele>
   </trkpt>
   <trkpt lat="50.6656543501207" lon="30.05040013410928">
    <ele>150.85000000000002</ele>
   </trkpt>
   <trkpt lat="50.665185778693335" lon="30.05152013410391">
    <ele>151.03000000000003</ele>
   </trkpt>
   <trkpt lat="50.66471719653282" lon="30.052640111744818">
    <ele>150.71</ele>
   </trkpt>
   <trkpt lat="50.664248603639564" lon="30.053760067032304">
    <ele>150.49</ele>
   </trkpt>
   <trkpt lat="50.66378" lon="30.05488">
    <ele>150.74</ele>
   </trkpt>
   <trkpt lat="50.66334001477633" lon="30.05595253011775">
    <ele>150.83</ele>
   </trkpt>
   <trkpt lat="50.66290001970988" lon="30.057025040136462">
    <ele>150.87</ele>
   </trkpt>
   <trkpt lat="50.66246001480108" lon="30.058097530056376">
    <ele>151.14000000000001</ele>
   </trkpt>
   <trkpt lat="50.662020000000005" lon="30.05917">
    <ele>151.26</ele>
   </trkpt>
   <trkpt lat="50.661546291172485" lon="30.060342582800796">
    <ele>150.94000000000003</ele>
   </trkpt>
   <trkpt lat="50.661072570580046" lon="30.061515141944838">
    <ele>150.8</ele>
   </trkpt>
   <trkpt lat="50.66059883822313" lon="30.06268767743242">
    <ele>151.46</ele>
   </trkpt>
   <trkpt lat="50.66012509410215" lon="30.06386018926382">
    <ele>151.39000000000001</ele>
   </trkpt>
   <trkpt lat="50.65965133821757" lon="30.065032677439337">
    <ele>151.04</ele>
   </trkpt>
   <trkpt lat="50.6591775705698" lon="30.066205141959255">
    <ele>150.27</ele>
   </trkpt>
   <trkpt lat="50.6587037911593" lon="30.06737758282387">
    <ele>150.52</ele>
   </trkpt>
   <trkpt lat="50.65823" lon="30.068550000000002">
    <ele>150.8</ele>
   </trkpt>
   <trkpt lat="50.658150000000006" lon="30.068870000000004">
    <ele>150.77</ele>
   </trkpt>
   <trkpt lat="50.65800501388214" lon="30.069910009637994">
    <ele>150.46</ele>
   </trkpt>
   <trkpt lat="50.65786001850893" lon="30.070950012854723">
    <ele>149.64000000000001</ele>
   </trkpt>
   <trkpt lat="50.65771501388043" lon="30.07199000964985">
    <ele>148.97000000000003</ele>
   </trkpt>
   <trkpt lat="50.65757000000001" lon="30.073030000000003">
    <ele>149.17000000000002</ele>
   </trkpt>
   <trkpt lat="50.657450000000004" lon="30.07364">
    <ele>149.48</ele>
   </trkpt>
   <trkpt lat="50.657270000000004" lon="30.074240000000003">
    <ele>149.69000000000003</ele>
   </trkpt>
   <trkpt lat="50.657090000000004" lon="30.07477">
    <ele>149.96</ele>
   </trkpt>
   <trkpt lat="50.65688" lon="30.075260000000004">
    <ele>150.18</ele>
   </trkpt>
   <trkpt lat="50.656620000000004" lon="30.075770000000002">
    <ele>150.73</ele>
   </trkpt>
   <trkpt lat="50.65614500864177" lon="30.076590024858852">
    <ele>151.06</ele>
   </trkpt>
   <trkpt lat="50.65567001152951" lon="30.077410033132278">
    <ele>151.68</ele>
   </trkpt>
   <trkpt lat="50.65519500866342" lon="30.078230024820694">
    <ele>152.47000000000003</ele>
   </trkpt>
   <trkpt lat="50.654720000000005" lon="30.079050000000002">
    <ele>152.8</ele>
   </trkpt>
   <trkpt lat="50.65424500884605" lon="30.079880025173633">
    <ele>153.13000000000002</ele>
   </trkpt>
   <trkpt lat="50.653770011796794" lon="30.080710033560727">
    <ele>153.71</ele>
   </trkpt>
   <trkpt lat="50.653295008852446" lon="30.08154002516168">
    <ele>154.67</ele>
   </trkpt>
   <trkpt lat="50.652820000000006" lon="30.08237">
    <ele>155.12</ele>
   </trkpt>
   <trkpt lat="50.652287510522925" lon="30.08327503075941">
    <ele>155.34</ele>
   </trkpt>
   <trkpt lat="50.65175501403685" lon="30.084180041001133">
    <ele>155.85000000000002</ele>
   </trkpt>
   <trkpt lat="50.65122251054208" lon="30.085085030725768">
    <ele>156.73000000000002</ele>
   </trkpt>
   <trkpt lat="50.650690000000004" lon="30.085990000000002">
    <ele>157.23000000000002</ele>
   </trkpt>
   <trkpt lat="50.65011667504175" lon="30.08698002418467">
    <ele>157.79000000000002</ele>
   </trkpt>
   <trkpt lat="50.649543341696116" lon="30.087970024205443">
    <ele>158.07000000000002</ele>
   </trkpt>
   <trkpt lat="50.648970000000006" lon="30.088960000000004">
    <ele>158.64</ele>
   </trkpt>
   <trkpt lat="50.64840403593776" lon="30.089926104733063">
    <ele>158.91000000000003</ele>
   </trkpt>
   <trkpt lat="50.64783806388843" lon="30.090892186190207">
    <ele>159.26000000000002</ele>
   </trkpt>
   <trkpt lat="50.64727208385235" lon="30.091858244372133">
    <ele>159.84</ele>
   </trkpt>
   <trkpt lat="50.6467060958299" lon="30.092824279279547">
    <ele>160.56</ele>
   </trkpt>
   <trkpt lat="50.64614009982141" lon="30.093790290913145">
    <ele>160.97</ele>
   </trkpt>
   <trkpt lat="50.64557409582726" lon="30.094756279273625">
    <ele>161.19</ele>
   </trkpt>
   <trkpt lat="50.64500808384777" lon="30.095722244361696">
    <ele>161.4</ele>
   </trkpt>
   <trkpt lat="50.64444206388331" lon="30.096688186178056">
    <ele>161.96</ele>
   </trkpt>
   <trkpt lat="50.643876035934255" lon="30.097654104723404">
    <ele>162.96</ele>
   </trkpt>
   <trkpt lat="50.64331000000001" lon="30.098620000000004">
    <ele>163.98000000000002</ele>
   </trkpt>
   <trkpt lat="50.64269859874395" lon="30.099651509089245">
    <ele>164.94</ele>
   </trkpt>
   <trkpt lat="50.642087188382426" lon="30.100682991337106">
    <ele>165.74</ele>
   </trkpt>
   <trkpt lat="50.64147576891584" lon="30.101714446744484">
    <ele>165.10000000000002</ele>
   </trkpt>
   <trkpt lat="50.64086434034467" lon="30.102745875312255">
    <ele>164.78</ele>
   </trkpt>
   <trkpt lat="50.640252902669324" lon="30.103777277041303">
    <ele>164.67000000000002</ele>
   </trkpt>
   <trkpt lat="50.639641455890235" lon="30.10480865193251">
    <ele>164.06</ele>
   </trkpt>
   <trkpt lat="50.639030000000005" lon="30.105840000000004">
    <ele>163.68</ele>
   </trkpt>
   <trkpt lat="50.63868000159353" lon="30.106435004297353">
    <ele>163.59</ele>
   </trkpt>
   <trkpt lat="50.63833" lon="30.10703">
    <ele>163.87</ele>
   </trkpt>
   <trkpt lat="50.63815" lon="30.107450000000004">
    <ele>163.87</ele>
   </trkpt>
   <trkpt lat="50.63801" lon="30.107850000000003">
    <ele>163.55</ele>
   </trkpt>
   <trkpt lat="50.63770252194613" lon="30.10915752566343">
    <ele>163.37</ele>
   </trkpt>
   <trkpt lat="50.63739502926115" lon="30.11046503421874">
    <ele>163.38000000000002</ele>
   </trkpt>
   <trkpt lat="50.63708752194539" lon="30.111772525665526">
    <ele>163.24</ele>
   </trkpt>
   <trkpt lat="50.63678" lon="30.113080000000004">
    <ele>162.95000000000002</ele>
   </trkpt>
   <trkpt lat="50.63651" lon="30.11409">
    <ele>163.18</ele>
   </trkpt>
   <trkpt lat="50.6362" lon="30.115150000000003">
    <ele>163.78</ele>
   </trkpt>
   <trkpt lat="50.63579860700656" lon="30.11632720317517">
    <ele>164.09</ele>
   </trkpt>
   <trkpt lat="50.63539720215314" lon="30.117504386244367">
    <ele>163.67000000000002</ele>
   </trkpt>
   <trkpt lat="50.634995785440104" lon="30.118681549207636">
    <ele>163.37</ele>
   </trkpt>
   <trkpt lat="50.63459435686784" lon="30.11985869206501">
    <ele>163.26000000000002</ele>
   </trkpt>
   <trkpt lat="50.63419291643669" lon="30.12103581481652">
    <ele>163.42000000000002</ele>
   </trkpt>
   <trkpt lat="50.633791464147045" lon="30.122212917462207">
    <ele>163.4</ele>
   </trkpt>
   <trkpt lat="50.633390000000006" lon="30.123390000000004">
    <ele>163.8</ele>
   </trkpt>
   <trkpt lat="50.63308000405253" lon="30.12435500615344">
    <ele>164.14000000000001</ele>
   </trkpt>
   <trkpt lat="50.63277" lon="30.125320000000002">
    <ele>164.47</ele>
   </trkpt>
   <trkpt lat="50.63259000000001" lon="30.12601">
    <ele>164.88000000000002</ele>
   </trkpt>
   <trkpt lat="50.632400000000004" lon="30.12702">
    <ele>164.9</ele>
   </trkpt>
   <trkpt lat="50.6322166783189" lon="30.128186675746907">
    <ele>163.51000000000002</ele>
   </trkpt>
   <trkpt lat="50.63203334498857" lon="30.129353342394218">
    <ele>161.23000000000002</ele>
   </trkpt>
   <trkpt lat="50.63185000000001" lon="30.130520000000004">
    <ele>158.58</ele>
   </trkpt>
   <trkpt lat="50.63174" lon="30.13088">
    <ele>158.42000000000002</ele>
   </trkpt>
   <trkpt lat="50.63161" lon="30.131220000000003">
    <ele>158.60999999999999</ele>
   </trkpt>
   <trkpt lat="50.63117000330332" lon="30.13210000825752">
    <ele>160.67000000000002</ele>
   </trkpt>
   <trkpt lat="50.63073000000001" lon="30.132980000000003">
    <ele>162.34</ele>
   </trkpt>
   <trkpt lat="50.63041000197736" lon="30.133675004925426">
    <ele>162.79000000000002</ele>
   </trkpt>
   <trkpt lat="50.63009" lon="30.134370000000004">
    <ele>162.82000000000002</ele>
   </trkpt>
   <trkpt lat="50.62980500225426" lon="30.135100004492504">
    <ele>162.88000000000002</ele>
   </trkpt>
   <trkpt lat="50.62952000000001" lon="30.135830000000002">
    <ele>162.89000000000001</ele>
   </trkpt>
   <trkpt lat="50.629235002582995" lon="30.13661000478464">
    <ele>162.35000000000002</ele>
   </trkpt>
   <trkpt lat="50.62895" lon="30.137390000000003">
    <ele>162.01000000000002</ele>
   </trkpt>
   <trkpt lat="50.628505055925345" lon="30.138595102646796">
    <ele>161.41000000000003</ele>
   </trkpt>
   <trkpt lat="50.62806009942126" lon="30.13980018248389">
    <ele>161.13000000000002</ele>
   </trkpt>
   <trkpt lat="50.627615130488195" lon="30.141005239511422">
    <ele>160.75</ele>
   </trkpt>
   <trkpt lat="50.62717014912659" lon="30.14221027372956">
    <ele>159.99</ele>
   </trkpt>
   <trkpt lat="50.62672515533687" lon="30.143415285138452">
    <ele>159.07999999999998</ele>
   </trkpt>
   <trkpt lat="50.62628014911947" lon="30.144620273738262">
    <ele>158.29000000000002</ele>
   </trkpt>
   <trkpt lat="50.6258351304748" lon="30.14582523952914">
    <ele>157.96</ele>
   </trkpt>
   <trkpt lat="50.625390099403326" lon="30.147030182511244">
    <ele>158.25</ele>
   </trkpt>
   <trkpt lat="50.62494505590546" lon="30.148235102684733">
    <ele>158.06</ele>
   </trkpt>
   <trkpt lat="50.624500000000005" lon="30.149440000000002">
    <ele>157.35000000000002</ele>
   </trkpt>
   <trkpt lat="50.624090030508505" lon="30.150530057020017">
    <ele>156.67</ele>
   </trkpt>
   <trkpt lat="50.623680050847135" lon="30.151620095032637">
    <ele>156.47000000000003</ele>
   </trkpt>
   <trkpt lat="50.62327006101625" lon="30.152710114038015">
    <ele>155.93</ele>
   </trkpt>
   <trkpt lat="50.62286006101615" lon="30.153800114036276">
    <ele>154.52</ele>
   </trkpt>
   <trkpt lat="50.622450050847156" lon="30.15489009502756">
    <ele>153.36</ele>
   </trkpt>
   <trkpt lat="50.62204003050961" lon="30.15598005701201">
    <ele>153.16000000000003</ele>
   </trkpt>
   <trkpt lat="50.62163" lon="30.15707">
    <ele>153.35000000000002</ele>
   </trkpt>
   <trkpt lat="50.62140000192722" lon="30.15772500294383">
    <ele>153.52</ele>
   </trkpt>
   <trkpt lat="50.621170000000006" lon="30.15838">
    <ele>153.68</ele>
   </trkpt>
   <trkpt lat="50.621080000000006" lon="30.158770000000004">
    <ele>153.84</ele>
   </trkpt>
   <trkpt lat="50.62104" lon="30.159180000000003">
    <ele>153.94000000000003</ele>
   </trkpt>
   <trkpt lat="50.620920000000005" lon="30.15941">
    <ele>154.12</ele>
   </trkpt>
   <trkpt lat="50.62047667036431" lon="30.160063345585932">
    <ele>154.86</ele>
   </trkpt>
   <trkpt lat="50.62003333707508" lon="30.1607166788541">
    <ele>155.82000000000002</ele>
   </trkpt>
   <trkpt lat="50.61959" lon="30.16137">
    <ele>155.84</ele>
   </trkpt>
   <trkpt lat="50.619310000000006" lon="30.16184">
    <ele>155.99</ele>
   </trkpt>
   <trkpt lat="50.61879500253589" lon="30.16261000843381">
    <ele>157.43</ele>
   </trkpt>
   <trkpt lat="50.618280000000006" lon="30.163380000000004">
    <ele>157.87</ele>
   </trkpt>
   <trkpt lat="50.61779000000001" lon="30.16419">
    <ele>156.8</ele>
   </trkpt>
   <trkpt lat="50.617490000000004" lon="30.164550000000002">
    <ele>156.56</ele>
   </trkpt>
   <trkpt lat="50.61719" lon="30.16484">
    <ele>156.55</ele>
   </trkpt>
   <trkpt lat="50.616490002551686" lon="30.165390016400025">
    <ele>156.78</ele>
   </trkpt>
   <trkpt lat="50.615790002514046" lon="30.16594001642928">
    <ele>156.64</ele>
   </trkpt>
   <trkpt lat="50.61509" lon="30.166490000000003">
    <ele>156.89</ele>
   </trkpt>
   <trkpt lat="50.61442000103791" lon="30.167000007321466">
    <ele>156.74</ele>
   </trkpt>
   <trkpt lat="50.61375" lon="30.167510000000004">
    <ele>157.04000000000002</ele>
   </trkpt>
   <trkpt lat="50.612965004144584" lon="30.168077528403188">
    <ele>157.38000000000002</ele>
   </trkpt>
   <trkpt lat="50.612180005532274" lon="30.16864503786564">
    <ele>157.32000000000002</ele>
   </trkpt>
   <trkpt lat="50.61139500416325" lon="30.16921252838847">
    <ele>156.99</ele>
   </trkpt>
   <trkpt lat="50.61061" lon="30.169780000000003">
    <ele>156.69000000000003</ele>
   </trkpt>
   <trkpt lat="50.610380000000006" lon="30.169970000000003">
    <ele>156.49</ele>
   </trkpt>
   <trkpt lat="50.610150000000004" lon="30.170240000000003">
    <ele>156.49</ele>
   </trkpt>
   <trkpt lat="50.60960000000001" lon="30.170790000000004">
    <ele>156.49</ele>
   </trkpt>
   <trkpt lat="50.60878" lon="30.171310000000002">
    <ele>156.39</ele>
   </trkpt>
   <trkpt lat="50.608010000659206" lon="30.17172500683373">
    <ele>155.96</ele>
   </trkpt>
   <trkpt lat="50.607240000000004" lon="30.172140000000002">
    <ele>154.63000000000002</ele>
   </trkpt>
   <trkpt lat="50.606451432447344" lon="30.172528610501978">
    <ele>153.09</ele>
   </trkpt>
   <trkpt lat="50.60566286360202" lon="30.172917207978468">
    <ele>152.17</ele>
   </trkpt>
   <trkpt lat="50.604874293464086" lon="30.17330579243025">
    <ele>152.38000000000002</ele>
   </trkpt>
   <trkpt lat="50.60408572203365" lon="30.173694363858107">
    <ele>154.08</ele>
   </trkpt>
   <trkpt lat="50.60329714931075" lon="30.174082922262823">
    <ele>154.22000000000003</ele>
   </trkpt>
   <trkpt lat="50.602508575295495" lon="30.174471467645176">
    <ele>153.4</ele>
   </trkpt>
   <trkpt lat="50.60172000000001" lon="30.174860000000002">
    <ele>152.12</ele>
   </trkpt>
   <trkpt lat="50.60103000053274" lon="30.17521000512731">
    <ele>151.84</ele>
   </trkpt>
   <trkpt lat="50.60034" lon="30.17556">
    <ele>151.67</ele>
   </trkpt>
   <trkpt lat="50.59969" lon="30.175850000000004">
    <ele>150.64000000000001</ele>
   </trkpt>
   <trkpt lat="50.59921000000001" lon="30.176140000000004">
    <ele>150.21</ele>
   </trkpt>
   <trkpt lat="50.5984400018069" lon="30.176515018404373">
    <ele>149.62</ele>
   </trkpt>
   <trkpt lat="50.59767000240986" lon="30.17689002453833">
    <ele>149.6</ele>
   </trkpt>
   <trkpt lat="50.59690000180902" lon="30.177265018402586">
    <ele>150.44000000000003</ele>
   </trkpt>
   <trkpt lat="50.59613" lon="30.177640000000004">
    <ele>151.76</ele>
   </trkpt>
   <trkpt lat="50.59559" lon="30.177880000000002">
    <ele>150.97000000000003</ele>
   </trkpt>
   <trkpt lat="50.59539" lon="30.177920000000004">
    <ele>150.73</ele>
   </trkpt>
   <trkpt lat="50.595270000000006" lon="30.1779">
    <ele>150.54</ele>
   </trkpt>
   <trkpt lat="50.59498000000001" lon="30.177580000000003">
    <ele>149.91000000000003</ele>
   </trkpt>
   <trkpt lat="50.594550000000005" lon="30.17705">
    <ele>149.2</ele>
   </trkpt>
   <trkpt lat="50.59447" lon="30.176980000000004">
    <ele>149.2</ele>
   </trkpt>
   <trkpt lat="50.59423" lon="30.176920000000003">
    <ele>149.2</ele>
   </trkpt>
   <trkpt lat="50.59361000002165" lon="30.176950000394267">
    <ele>149.63000000000002</ele>
   </trkpt>
   <trkpt lat="50.59299000000001" lon="30.176980000000004">
    <ele>150.04</ele>
   </trkpt>
   <trkpt lat="50.59268" lon="30.17704">
    <ele>150.72000000000003</ele>
   </trkpt>
   <trkpt lat="50.59248" lon="30.177130000000002">
    <ele>150.94000000000003</ele>
   </trkpt>
   <trkpt lat="50.591680000000004" lon="30.177630000000004">
    <ele>151.02</ele>
   </trkpt>
   <trkpt lat="50.59109" lon="30.17809">
    <ele>150.46</ele>
   </trkpt>
   <trkpt lat="50.59055000000001" lon="30.17855">
    <ele>150.00000000000003</ele>
   </trkpt>
   <trkpt lat="50.58986800749746" lon="30.17921203836445">
    <ele>149.79</ele>
   </trkpt>
   <trkpt lat="50.58918601124277" lon="30.179874057548894">
    <ele>149.49</ele>
   </trkpt>
   <trkpt lat="50.58850401123612" lon="30.180536057554242">
    <ele>149.28000000000003</ele>
   </trkpt>
   <trkpt lat="50.58782200747771" lon="30.181198038381403">
    <ele>148.44000000000003</ele>
   </trkpt>
   <trkpt lat="50.587140000000005" lon="30.181860000000004">
    <ele>146.49</ele>
   </trkpt>
   <trkpt lat="50.586470001739045" lon="30.182500009120417">
    <ele>145.16</ele>
   </trkpt>
   <trkpt lat="50.585800000000006" lon="30.18314">
    <ele>143.97</ele>
   </trkpt>
   <trkpt lat="50.58512" lon="30.183870000000002">
    <ele>143.55</ele>
   </trkpt>
   <trkpt lat="50.58448000234492" lon="30.184610010056545">
    <ele>143.78000000000003</ele>
   </trkpt>
   <trkpt lat="50.58384" lon="30.185350000000003">
    <ele>143.97</ele>
   </trkpt>
   <trkpt lat="50.58370000000001" lon="30.185530000000004">
    <ele>143.78000000000003</ele>
   </trkpt>
   <trkpt lat="50.583560000000006" lon="30.18586">
    <ele>143.63</ele>
   </trkpt>
   <trkpt lat="50.58310334557967" lon="30.187056689911927">
    <ele>142.31000000000003</ele>
   </trkpt>
   <trkpt lat="50.58264667889902" lon="30.18825335661478">
    <ele>140.84000000000003</ele>
   </trkpt>
   <trkpt lat="50.582190000000004" lon="30.18945">
    <ele>140.16</ele>
   </trkpt>
   <trkpt lat="50.58175000000001" lon="30.190510000000003">
    <ele>138.28</ele>
   </trkpt>
   <trkpt lat="50.58144500285208" lon="30.191325005255052">
    <ele>137.70000000000002</ele>
   </trkpt>
   <trkpt lat="50.581140000000005" lon="30.192140000000002">
    <ele>137.74</ele>
   </trkpt>
   <trkpt lat="50.580750030913016" lon="30.193237197383294">
    <ele>137.63</ele>
   </trkpt>
   <trkpt lat="50.580360051519364" lon="30.194334376596068">
    <ele>136.52</ele>
   </trkpt>
   <trkpt lat="50.57997006181943" lon="30.195431537638395">
    <ele>136.89000000000001</ele>
   </trkpt>
   <trkpt lat="50.57958006181347" lon="30.196528680510344">
    <ele>137.51000000000002</ele>
   </trkpt>
   <trkpt lat="50.579190051501854" lon="30.19762580521199">
    <ele>136.61</ele>
   </trkpt>
   <trkpt lat="50.57880003088484" lon="30.19872291174341">
    <ele>136.13</ele>
   </trkpt>
   <trkpt lat="50.578410000000005" lon="30.199820000000003">
    <ele>136.99</ele>
   </trkpt>
   <trkpt lat="50.578070007103356" lon="30.200730013102255">
    <ele>136.15</ele>
   </trkpt>
   <trkpt lat="50.57773000711661" lon="30.201640013066545">
    <ele>133.03</ele>
   </trkpt>
   <trkpt lat="50.57739" lon="30.202550000000002">
    <ele>130.81</ele>
   </trkpt>
   <trkpt lat="50.577045002979595" lon="30.20338500612851">
    <ele>129.13000000000002</ele>
   </trkpt>
   <trkpt lat="50.5767" lon="30.204220000000003">
    <ele>127.67</ele>
   </trkpt>
   <trkpt lat="50.5763500068595" lon="30.20511334654094">
    <ele>126.61</ele>
   </trkpt>
   <trkpt lat="50.57600000688618" lon="30.206006679806016">
    <ele>125.61</ele>
   </trkpt>
   <trkpt lat="50.57565" lon="30.2069">
    <ele>123.95</ele>
   </trkpt>
   <trkpt lat="50.57528000000001" lon="30.207910000000002">
    <ele>122.21000000000001</ele>
   </trkpt>
   <trkpt lat="50.57494251127679" lon="30.208847520181457">
    <ele>120.66</ele>
   </trkpt>
   <trkpt lat="50.574605015028226" lon="30.209785026929023">
    <ele>119.3</ele>
   </trkpt>
   <trkpt lat="50.57426751125451" lon="30.210722520242733">
    <ele>118.84000000000002</ele>
   </trkpt>
   <trkpt lat="50.573930000000004" lon="30.211660000000002">
    <ele>119.02000000000001</ele>
   </trkpt>
   <trkpt lat="50.57361000358807" lon="30.212585006499907">
    <ele>119.01</ele>
   </trkpt>
   <trkpt lat="50.57329000000001" lon="30.213510000000003">
    <ele>118.98000000000002</ele>
   </trkpt>
   <trkpt lat="50.57325" lon="30.213580000000004">
    <ele>118.91000000000001</ele>
   </trkpt>
   <trkpt lat="50.57318" lon="30.21364">
    <ele>118.81000000000002</ele>
   </trkpt>
   <trkpt lat="50.57311000000001" lon="30.21365">
    <ele>118.81000000000002</ele>
   </trkpt>
   <trkpt lat="50.572970000000005" lon="30.213610000000003">
    <ele>118.46000000000001</ele>
   </trkpt>
   <trkpt lat="50.572900000000004" lon="30.21355">
    <ele>118.01</ele>
   </trkpt>
   <trkpt lat="50.57251" lon="30.21338">
    <ele>117.19000000000001</ele>
   </trkpt>
   <trkpt lat="50.57198000002019" lon="30.213124997006975">
    <ele>116.80000000000001</ele>
   </trkpt>
   <trkpt lat="50.571450000000006" lon="30.212870000000002">
    <ele>116.38000000000001</ele>
   </trkpt>
   <trkpt lat="50.570752501627105" lon="30.212509983991346">
    <ele>116.36</ele>
   </trkpt>
   <trkpt lat="50.570055002144514" lon="30.212149978642632">
    <ele>116.22</ele>
   </trkpt>
   <trkpt lat="50.56935750155224" lon="30.211789983953295">
    <ele>117.12000000000002</ele>
   </trkpt>
   <trkpt lat="50.56866" lon="30.211430000000004">
    <ele>118.18</ele>
   </trkpt>
   <trkpt lat="50.56870000000001" lon="30.211830000000003">
    <ele>117.28</ele>
   </trkpt>
   <trkpt lat="50.568650000000005" lon="30.21317">
    <ele>116.48000000000002</ele>
   </trkpt>
   <trkpt lat="50.56865001274413" lon="30.21439000002828">
    <ele>116.08</ele>
   </trkpt>
   <trkpt lat="50.56865001274412" lon="30.2156100000569">
    <ele>115.87000000000002</ele>
   </trkpt>
   <trkpt lat="50.568650000000005" lon="30.21683">
    <ele>115.78</ele>
   </trkpt>
   <trkpt lat="50.56866500424188" lon="30.21782499991004">
    <ele>115.65</ele>
   </trkpt>
   <trkpt lat="50.56868000000001" lon="30.21882">
    <ele>115.84</ele>
   </trkpt>
   <trkpt lat="50.56868000000001" lon="30.21881">
    <ele>115.84</ele>
   </trkpt>
   <trkpt lat="50.56869500316559" lon="30.219669999683024">
    <ele>115.61</ele>
   </trkpt>
   <trkpt lat="50.56871" lon="30.220530000000004">
    <ele>115.36</ele>
   </trkpt>
   <trkpt lat="50.56873" lon="30.220710000000004">
    <ele>115.36</ele>
   </trkpt>
   <trkpt lat="50.56877" lon="30.22089">
    <ele>115.25</ele>
   </trkpt>
   <trkpt lat="50.56891" lon="30.221140000000002">
    <ele>115.34</ele>
   </trkpt>
   <trkpt lat="50.569560001794386" lon="30.221794990920824">
    <ele>115.71000000000001</ele>
   </trkpt>
   <trkpt lat="50.57021" lon="30.222450000000002">
    <ele>115.4</ele>
   </trkpt>
   <trkpt lat="50.570370000000004" lon="30.22274">
    <ele>115.03</ele>
   </trkpt>
   <trkpt lat="50.570420000000006" lon="30.223050000000004">
    <ele>115.03</ele>
   </trkpt>
   <trkpt lat="50.570420000000006" lon="30.223950000000002">
    <ele>114.87</ele>
   </trkpt>
   <trkpt lat="50.57040000000001" lon="30.224200000000003">
    <ele>114.95</ele>
   </trkpt>
   <trkpt lat="50.5704000078602" lon="30.225555000003606">
    <ele>114.67</ele>
   </trkpt>
   <trkpt lat="50.57040000000001" lon="30.226910000000004">
    <ele>114.43</ele>
   </trkpt>
   <trkpt lat="50.57038000000001" lon="30.227180000000004">
    <ele>114.43</ele>
   </trkpt>
   <trkpt lat="50.570130001555135" lon="30.22779500342108">
    <ele>114.44000000000001</ele>
   </trkpt>
   <trkpt lat="50.569880000000005" lon="30.228410000000004">
    <ele>114.84</ele>
   </trkpt>
   <trkpt lat="50.56953333882782" lon="30.22921334522729">
    <ele>116.11</ele>
   </trkpt>
   <trkpt lat="50.56918667212996" lon="30.230016678632747">
    <ele>118.27000000000001</ele>
   </trkpt>
   <trkpt lat="50.56884" lon="30.23082">
    <ele>119.72</ele>
   </trkpt>
   <trkpt lat="50.568580000000004" lon="30.23121">
    <ele>121.09</ele>
   </trkpt>
   <trkpt lat="50.5681" lon="30.231250000000003">
    <ele>122.59</ele>
   </trkpt>
   <trkpt lat="50.56723200001004" lon="30.231217997641767">
    <ele>125.72</ele>
   </trkpt>
   <trkpt lat="50.56636400001128" lon="30.231185996462596">
    <ele>129.20000000000002</ele>
   </trkpt>
   <trkpt lat="50.56549600000377" lon="30.231153996462393">
    <ele>130.08</ele>
   </trkpt>
   <trkpt lat="50.56462799998751" lon="30.231121997641097">
    <ele>131.55</ele>
   </trkpt>
   <trkpt lat="50.56376" lon="30.231090000000002">
    <ele>132.59</ele>
   </trkpt>
   <trkpt lat="50.56336" lon="30.231090000000002">
    <ele>133.12</ele>
   </trkpt>
   <trkpt lat="50.56274999994002" lon="30.23109">
    <ele>133.8</ele>
   </trkpt>
   <trkpt lat="50.56214000000001" lon="30.231090000000002">
    <ele>135.88</ele>
   </trkpt>
   <trkpt lat="50.562160000000006" lon="30.230870000000003">
    <ele>136.46</ele>
   </trkpt>
   <trkpt lat="50.56218000642615" lon="30.2296450004306">
    <ele>136.45000000000002</ele>
   </trkpt>
   <trkpt lat="50.562200000000004" lon="30.228420000000003">
    <ele>137.25</ele>
   </trkpt>
   <trkpt lat="50.56220000647725" lon="30.22719000001851">
    <ele>139.43</ele>
   </trkpt>
   <trkpt lat="50.562200000000004" lon="30.225960000000004">
    <ele>140.83</ele>
   </trkpt>
   <trkpt lat="50.562190005370674" lon="30.224839999780375">
    <ele>143.37000000000003</ele>
   </trkpt>
   <trkpt lat="50.562180000000005" lon="30.223720000000004">
    <ele>144.06000000000003</ele>
   </trkpt>
   <trkpt lat="50.5621960273612" lon="30.222456001708405">
    <ele>144.52</ele>
   </trkpt>
   <trkpt lat="50.56221204104188" lon="30.221192002557416">
    <ele>143.27</ele>
   </trkpt>
   <trkpt lat="50.56222804104202" lon="30.219928002547782">
    <ele>142.05</ele>
   </trkpt>
   <trkpt lat="50.56224402736158" lon="30.218664001680228">
    <ele>142.53</ele>
   </trkpt>
   <trkpt lat="50.56226" lon="30.2174">
    <ele>143.09000000000003</ele>
   </trkpt>
  </trkseg>
 </trk>
</gpx>
