<?xml version='1.0' encoding='UTF-8'?>
<gpx version="1.1" creator="https://www.komoot.de" xmlns="http://www.topografix.com/GPX/1/1" xmlns:xsi="http://www.w3.org/2001/XMLSchema-instance" xsi:schemaLocation="http://www.topografix.com/GPX/1/1 http://www.topografix.com/GPX/1/1/gpx.xsd">
  <metadata>
    <name>сотка 2026 щоб скачати</name>
    <author>
      <link href="https://www.komoot.de">
        <text>komoot</text>
        <type>text/html</type>
      </link>
    </author>
  </metadata>
  <trk>
    <name>сотка 2026 щоб скачати</name>
    <type>touring_bicycle</type>
    <trkseg>
      <trkpt lat="50.562275" lon="30.220056">
        <ele>142.100006</ele>
        <time>2026-07-22T15:07:00.144Z</time>
      </trkpt>
      <trkpt lat="50.562289" lon="30.218371">
        <ele>142.047129</ele>
        <time>2026-07-22T15:08:14.538Z</time>
      </trkpt>
      <trkpt lat="50.562424" lon="30.217997">
        <ele>141.643118</ele>
        <time>2026-07-22T15:08:33.552Z</time>
      </trkpt>
      <trkpt lat="50.562517" lon="30.217845">
        <ele>141.318730</ele>
        <time>2026-07-22T15:08:50.124Z</time>
      </trkpt>
      <trkpt lat="50.562624" lon="30.217850">
        <ele>141.167860</ele>
        <time>2026-07-22T15:09:03.374Z</time>
      </trkpt>
      <trkpt lat="50.562672" lon="30.217814">
        <ele>141.092925</ele>
        <time>2026-07-22T15:09:07.037Z</time>
      </trkpt>
      <trkpt lat="50.562448" lon="30.217380">
        <ele>142.692438</ele>
        <time>2026-07-22T15:09:31.726Z</time>
      </trkpt>
      <trkpt lat="50.562325" lon="30.217239">
        <ele>143.647732</ele>
        <time>2026-07-22T15:09:39.773Z</time>
      </trkpt>
      <trkpt lat="50.562222" lon="30.217173">
        <ele>144.097196</ele>
        <time>2026-07-22T15:09:44.836Z</time>
      </trkpt>
      <trkpt lat="50.562224" lon="30.216909">
        <ele>144.533292</ele>
        <time>2026-07-22T15:09:49.277Z</time>
      </trkpt>
      <trkpt lat="50.562242" lon="30.214389">
        <ele>145.124670</ele>
        <time>2026-07-22T15:10:26.353Z</time>
      </trkpt>
      <trkpt lat="50.562245" lon="30.214057">
        <ele>145.863336</ele>
        <time>2026-07-22T15:10:34.578Z</time>
      </trkpt>
      <trkpt lat="50.562248" lon="30.213597">
        <ele>147.108929</ele>
        <time>2026-07-22T15:10:47.534Z</time>
      </trkpt>
      <trkpt lat="50.562268" lon="30.210870">
        <ele>147.444200</ele>
        <time>2026-07-22T15:11:25.793Z</time>
      </trkpt>
      <trkpt lat="50.562327" lon="30.210836">
        <ele>147.479831</ele>
        <time>2026-07-22T15:11:27.275Z</time>
      </trkpt>
      <trkpt lat="50.562361" lon="30.210717">
        <ele>147.526837</ele>
        <time>2026-07-22T15:11:29.555Z</time>
      </trkpt>
      <trkpt lat="50.562349" lon="30.210654">
        <ele>147.590609</ele>
        <time>2026-07-22T15:11:30.812Z</time>
      </trkpt>
      <trkpt lat="50.562581" lon="30.210452">
        <ele>147.965995</ele>
        <time>2026-07-22T15:11:38.227Z</time>
      </trkpt>
      <trkpt lat="50.563572" lon="30.209587">
        <ele>149.118376</ele>
        <time>2026-07-22T15:12:08.333Z</time>
      </trkpt>
      <trkpt lat="50.563779" lon="30.209419">
        <ele>148.980487</ele>
        <time>2026-07-22T15:12:13.209Z</time>
      </trkpt>
      <trkpt lat="50.563911" lon="30.209356">
        <ele>148.724951</ele>
        <time>2026-07-22T15:12:15.605Z</time>
      </trkpt>
      <trkpt lat="50.564091" lon="30.209347">
        <ele>147.954095</ele>
        <time>2026-07-22T15:12:18.406Z</time>
      </trkpt>
      <trkpt lat="50.564313" lon="30.209419">
        <ele>146.770471</ele>
        <time>2026-07-22T15:12:21.773Z</time>
      </trkpt>
      <trkpt lat="50.564969" lon="30.209723">
        <ele>142.591613</ele>
        <time>2026-07-22T15:12:31.805Z</time>
      </trkpt>
      <trkpt lat="50.565439" lon="30.209944">
        <ele>138.192682</ele>
        <time>2026-07-22T15:12:38.571Z</time>
      </trkpt>
      <trkpt lat="50.566016" lon="30.210227">
        <ele>131.218021</ele>
        <time>2026-07-22T15:12:46.598Z</time>
      </trkpt>
      <trkpt lat="50.566465" lon="30.210447">
        <ele>126.838252</ele>
        <time>2026-07-22T15:12:53.067Z</time>
      </trkpt>
      <trkpt lat="50.566956" lon="30.210676">
        <ele>123.808461</ele>
        <time>2026-07-22T15:13:00.588Z</time>
      </trkpt>
      <trkpt lat="50.568604" lon="30.211407">
        <ele>117.822756</ele>
        <time>2026-07-22T15:13:28.138Z</time>
      </trkpt>
      <trkpt lat="50.568666" lon="30.211436">
        <ele>117.613352</ele>
        <time>2026-07-22T15:13:29.202Z</time>
      </trkpt>
      <trkpt lat="50.568875" lon="30.211534">
        <ele>117.002768</ele>
        <time>2026-07-22T15:13:32.866Z</time>
      </trkpt>
      <trkpt lat="50.569089" lon="30.211649">
        <ele>116.391553</ele>
        <time>2026-07-22T15:13:36.651Z</time>
      </trkpt>
      <trkpt lat="50.569379" lon="30.211804">
        <ele>115.471981</ele>
        <time>2026-07-22T15:13:41.737Z</time>
      </trkpt>
      <trkpt lat="50.569516" lon="30.211873">
        <ele>115.002944</ele>
        <time>2026-07-22T15:13:44.054Z</time>
      </trkpt>
      <trkpt lat="50.569825" lon="30.212035">
        <ele>114.203230</ele>
        <time>2026-07-22T15:13:49.330Z</time>
      </trkpt>
      <trkpt lat="50.571450" lon="30.212877">
        <ele>113.526204</ele>
        <time>2026-07-22T15:14:25.426Z</time>
      </trkpt>
      <trkpt lat="50.572981" lon="30.213611">
        <ele>118.404090</ele>
        <time>2026-07-22T15:15:21.039Z</time>
      </trkpt>
      <trkpt lat="50.573112" lon="30.213657">
        <ele>118.816704</ele>
        <time>2026-07-22T15:15:26.122Z</time>
      </trkpt>
      <trkpt lat="50.573187" lon="30.213641">
        <ele>118.933099</ele>
        <time>2026-07-22T15:15:28.434Z</time>
      </trkpt>
      <trkpt lat="50.573291" lon="30.213515">
        <ele>118.809534</ele>
        <time>2026-07-22T15:15:31.030Z</time>
      </trkpt>
      <trkpt lat="50.573330" lon="30.213405">
        <ele>118.695740</ele>
        <time>2026-07-22T15:15:32.361Z</time>
      </trkpt>
      <trkpt lat="50.573773" lon="30.212123">
        <ele>115.611054</ele>
        <time>2026-07-22T15:15:47.203Z</time>
      </trkpt>
      <trkpt lat="50.573934" lon="30.211660">
        <ele>115.393890</ele>
        <time>2026-07-22T15:15:53.740Z</time>
      </trkpt>
      <trkpt lat="50.575174" lon="30.208249">
        <ele>122.352994</ele>
        <time>2026-07-22T15:17:18.059Z</time>
      </trkpt>
      <trkpt lat="50.575653" lon="30.206910">
        <ele>124.221273</ele>
        <time>2026-07-22T15:17:47.004Z</time>
      </trkpt>
      <trkpt lat="50.576224" lon="30.205413">
        <ele>126.838171</ele>
        <time>2026-07-22T15:18:22.175Z</time>
      </trkpt>
      <trkpt lat="50.576609" lon="30.204454">
        <ele>129.295076</ele>
        <time>2026-07-22T15:18:48.178Z</time>
      </trkpt>
      <trkpt lat="50.576717" lon="30.204185">
        <ele>129.935052</ele>
        <time>2026-07-22T15:18:55.423Z</time>
      </trkpt>
      <trkpt lat="50.577398" lon="30.202553">
        <ele>132.648368</ele>
        <time>2026-07-22T15:19:33.504Z</time>
      </trkpt>
      <trkpt lat="50.578420" lon="30.199827">
        <ele>138.486899</ele>
        <time>2026-07-22T15:20:42.505Z</time>
      </trkpt>
      <trkpt lat="50.579699" lon="30.196186">
        <ele>136.414142</ele>
        <time>2026-07-22T15:21:34.095Z</time>
      </trkpt>
      <trkpt lat="50.581147" lon="30.192149">
        <ele>137.859914</ele>
        <time>2026-07-22T15:22:45.099Z</time>
      </trkpt>
      <trkpt lat="50.581758" lon="30.190515">
        <ele>140.261197</ele>
        <time>2026-07-22T15:23:22.219Z</time>
      </trkpt>
      <trkpt lat="50.582198" lon="30.189460">
        <ele>141.325430</ele>
        <time>2026-07-22T15:23:44.065Z</time>
      </trkpt>
      <trkpt lat="50.583707" lon="30.185539">
        <ele>145.735376</ele>
        <time>2026-07-22T15:25:07.013Z</time>
      </trkpt>
      <trkpt lat="50.585124" lon="30.183871">
        <ele>146.999217</ele>
        <time>2026-07-22T15:25:50.994Z</time>
      </trkpt>
      <trkpt lat="50.585624" lon="30.183338">
        <ele>147.403004</ele>
        <time>2026-07-22T15:26:06.243Z</time>
      </trkpt>
      <trkpt lat="50.590552" lon="30.178552">
        <ele>151.686523</ele>
        <time>2026-07-22T15:28:32.200Z</time>
      </trkpt>
      <trkpt lat="50.591091" lon="30.178093">
        <ele>152.018149</ele>
        <time>2026-07-22T15:28:46.900Z</time>
      </trkpt>
      <trkpt lat="50.591687" lon="30.177635">
        <ele>152.525254</ele>
        <time>2026-07-22T15:29:03.818Z</time>
      </trkpt>
      <trkpt lat="50.592132" lon="30.177349">
        <ele>153.074299</ele>
        <time>2026-07-22T15:29:16.772Z</time>
      </trkpt>
      <trkpt lat="50.592487" lon="30.177132">
        <ele>153.357939</ele>
        <time>2026-07-22T15:29:26.350Z</time>
      </trkpt>
      <trkpt lat="50.592856" lon="30.177005">
        <ele>153.243987</ele>
        <time>2026-07-22T15:29:34.387Z</time>
      </trkpt>
      <trkpt lat="50.594239" lon="30.176928">
        <ele>151.096348</ele>
        <time>2026-07-22T15:29:59.602Z</time>
      </trkpt>
      <trkpt lat="50.594413" lon="30.176960">
        <ele>150.790337</ele>
        <time>2026-07-22T15:30:02.744Z</time>
      </trkpt>
      <trkpt lat="50.594559" lon="30.177053">
        <ele>150.562568</ele>
        <time>2026-07-22T15:30:05.549Z</time>
      </trkpt>
      <trkpt lat="50.594983" lon="30.177586">
        <ele>150.094609</ele>
        <time>2026-07-22T15:30:15.953Z</time>
      </trkpt>
      <trkpt lat="50.595277" lon="30.177903">
        <ele>151.259125</ele>
        <time>2026-07-22T15:30:29.512Z</time>
      </trkpt>
      <trkpt lat="50.595392" lon="30.177926">
        <ele>151.668625</ele>
        <time>2026-07-22T15:30:33.595Z</time>
      </trkpt>
      <trkpt lat="50.595593" lon="30.177882">
        <ele>152.198563</ele>
        <time>2026-07-22T15:30:40.162Z</time>
      </trkpt>
      <trkpt lat="50.596131" lon="30.177646">
        <ele>153.546935</ele>
        <time>2026-07-22T15:30:58.243Z</time>
      </trkpt>
      <trkpt lat="50.596292" lon="30.177568">
        <ele>153.803643</ele>
        <time>2026-07-22T15:31:03.223Z</time>
      </trkpt>
      <trkpt lat="50.599213" lon="30.176146">
        <ele>152.102142</ele>
        <time>2026-07-22T15:32:05.438Z</time>
      </trkpt>
      <trkpt lat="50.599697" lon="30.175858">
        <ele>151.066421</ele>
        <time>2026-07-22T15:32:14.235Z</time>
      </trkpt>
      <trkpt lat="50.600347" lon="30.175568">
        <ele>153.017434</ele>
        <time>2026-07-22T15:32:38.072Z</time>
      </trkpt>
      <trkpt lat="50.607245" lon="30.172146">
        <ele>156.423387</ele>
        <time>2026-07-22T15:35:31.954Z</time>
      </trkpt>
      <trkpt lat="50.608784" lon="30.171320">
        <ele>157.898405</ele>
        <time>2026-07-22T15:36:14.025Z</time>
      </trkpt>
      <trkpt lat="50.609605" lon="30.170794">
        <ele>158.648769</ele>
        <time>2026-07-22T15:36:37.048Z</time>
      </trkpt>
      <trkpt lat="50.610388" lon="30.169979">
        <ele>158.888049</ele>
        <time>2026-07-22T15:36:58.881Z</time>
      </trkpt>
      <trkpt lat="50.610619" lon="30.169780">
        <ele>158.892676</ele>
        <time>2026-07-22T15:37:04.755Z</time>
      </trkpt>
      <trkpt lat="50.613757" lon="30.167513">
        <ele>158.402624</ele>
        <time>2026-07-22T15:38:19.508Z</time>
      </trkpt>
      <trkpt lat="50.615097" lon="30.166493">
        <ele>158.296849</ele>
        <time>2026-07-22T15:38:52.064Z</time>
      </trkpt>
      <trkpt lat="50.617196" lon="30.164848">
        <ele>157.994368</ele>
        <time>2026-07-22T15:39:43.105Z</time>
      </trkpt>
      <trkpt lat="50.617496" lon="30.164559">
        <ele>157.914906</ele>
        <time>2026-07-22T15:39:50.778Z</time>
      </trkpt>
      <trkpt lat="50.617796" lon="30.164196">
        <ele>157.900006</ele>
        <time>2026-07-22T15:39:59.214Z</time>
      </trkpt>
      <trkpt lat="50.618283" lon="30.163382">
        <ele>157.957949</ele>
        <time>2026-07-22T15:40:15.000Z</time>
      </trkpt>
      <trkpt lat="50.619312" lon="30.161841">
        <ele>158.675657</ele>
        <time>2026-07-22T15:40:49.721Z</time>
      </trkpt>
      <trkpt lat="50.619594" lon="30.161374">
        <ele>158.621565</ele>
        <time>2026-07-22T15:40:58.617Z</time>
      </trkpt>
      <trkpt lat="50.620590" lon="30.159902">
        <ele>156.387208</ele>
        <time>2026-07-22T15:41:23.747Z</time>
      </trkpt>
      <trkpt lat="50.620923" lon="30.159415">
        <ele>153.316687</ele>
        <time>2026-07-22T15:41:30.162Z</time>
      </trkpt>
      <trkpt lat="50.621039" lon="30.159182">
        <ele>152.431375</ele>
        <time>2026-07-22T15:41:32.939Z</time>
      </trkpt>
      <trkpt lat="50.621120" lon="30.158574">
        <ele>151.726021</ele>
        <time>2026-07-22T15:41:40.407Z</time>
      </trkpt>
      <trkpt lat="50.621446" lon="30.157593">
        <ele>151.147487</ele>
        <time>2026-07-22T15:41:54.331Z</time>
      </trkpt>
      <trkpt lat="50.621633" lon="30.157079">
        <ele>151.091389</ele>
        <time>2026-07-22T15:42:02.555Z</time>
      </trkpt>
      <trkpt lat="50.622364" lon="30.155147">
        <ele>150.811762</ele>
        <time>2026-07-22T15:42:33.215Z</time>
      </trkpt>
      <trkpt lat="50.622534" lon="30.154686">
        <ele>150.843637</ele>
        <time>2026-07-22T15:42:40.645Z</time>
      </trkpt>
      <trkpt lat="50.624503" lon="30.149446">
        <ele>156.153969</ele>
        <time>2026-07-22T15:44:28.110Z</time>
      </trkpt>
      <trkpt lat="50.628960" lon="30.137400">
        <ele>159.805497</ele>
        <time>2026-07-22T15:47:59.629Z</time>
      </trkpt>
      <trkpt lat="50.629524" lon="30.135830">
        <ele>159.349088</ele>
        <time>2026-07-22T15:48:23.104Z</time>
      </trkpt>
      <trkpt lat="50.630098" lon="30.134372">
        <ele>159.700136</ele>
        <time>2026-07-22T15:48:48.821Z</time>
      </trkpt>
      <trkpt lat="50.630734" lon="30.132988">
        <ele>159.963255</ele>
        <time>2026-07-22T15:49:14.616Z</time>
      </trkpt>
      <trkpt lat="50.631613" lon="30.131220">
        <ele>157.504268</ele>
        <time>2026-07-22T15:49:39.855Z</time>
      </trkpt>
      <trkpt lat="50.631853" lon="30.130524">
        <ele>157.457735</ele>
        <time>2026-07-22T15:49:51.056Z</time>
      </trkpt>
      <trkpt lat="50.632401" lon="30.127029">
        <ele>160.463813</ele>
        <time>2026-07-22T15:50:54.516Z</time>
      </trkpt>
      <trkpt lat="50.632597" lon="30.126012">
        <ele>160.576552</ele>
        <time>2026-07-22T15:51:09.716Z</time>
      </trkpt>
      <trkpt lat="50.632777" lon="30.125320">
        <ele>160.296306</ele>
        <time>2026-07-22T15:51:19.338Z</time>
      </trkpt>
      <trkpt lat="50.633401" lon="30.123396">
        <ele>159.371417</ele>
        <time>2026-07-22T15:51:46.511Z</time>
      </trkpt>
      <trkpt lat="50.636205" lon="30.115150">
        <ele>163.022189</ele>
        <time>2026-07-22T15:54:13.762Z</time>
      </trkpt>
      <trkpt lat="50.636782" lon="30.113085">
        <ele>162.003885</ele>
        <time>2026-07-22T15:54:42.255Z</time>
      </trkpt>
      <trkpt lat="50.638014" lon="30.107859">
        <ele>159.697776</ele>
        <time>2026-07-22T15:55:53.450Z</time>
      </trkpt>
      <trkpt lat="50.638150" lon="30.107458">
        <ele>159.522170</ele>
        <time>2026-07-22T15:55:59.069Z</time>
      </trkpt>
      <trkpt lat="50.638336" lon="30.107033">
        <ele>159.578220</ele>
        <time>2026-07-22T15:56:06.385Z</time>
      </trkpt>
      <trkpt lat="50.643315" lon="30.098627">
        <ele>165.625791</ele>
        <time>2026-07-22T15:59:13.396Z</time>
      </trkpt>
      <trkpt lat="50.652826" lon="30.082379">
        <ele>151.627235</ele>
        <time>2026-07-22T16:03:43.851Z</time>
      </trkpt>
      <trkpt lat="50.654721" lon="30.079053">
        <ele>150.119214</ele>
        <time>2026-07-22T16:04:41.772Z</time>
      </trkpt>
      <trkpt lat="50.656627" lon="30.075779">
        <ele>149.826181</ele>
        <time>2026-07-22T16:05:43.786Z</time>
      </trkpt>
      <trkpt lat="50.656883" lon="30.075269">
        <ele>149.271663</ele>
        <time>2026-07-22T16:05:51.368Z</time>
      </trkpt>
      <trkpt lat="50.657096" lon="30.074771">
        <ele>148.490538</ele>
        <time>2026-07-22T16:05:57.994Z</time>
      </trkpt>
      <trkpt lat="50.657279" lon="30.074242">
        <ele>147.729342</ele>
        <time>2026-07-22T16:06:04.617Z</time>
      </trkpt>
      <trkpt lat="50.657451" lon="30.073647">
        <ele>147.572907</ele>
        <time>2026-07-22T16:06:13.732Z</time>
      </trkpt>
      <trkpt lat="50.657579" lon="30.073033">
        <ele>147.440273</ele>
        <time>2026-07-22T16:06:22.260Z</time>
      </trkpt>
      <trkpt lat="50.657971" lon="30.070091">
        <ele>147.710662</ele>
        <time>2026-07-22T16:07:05.909Z</time>
      </trkpt>
      <trkpt lat="50.658159" lon="30.068873">
        <ele>148.003783</ele>
        <time>2026-07-22T16:07:24.578Z</time>
      </trkpt>
      <trkpt lat="50.658239" lon="30.068552">
        <ele>148.097092</ele>
        <time>2026-07-22T16:07:29.800Z</time>
      </trkpt>
      <trkpt lat="50.658763" lon="30.067241">
        <ele>148.487068</ele>
        <time>2026-07-22T16:07:53.416Z</time>
      </trkpt>
      <trkpt lat="50.659720" lon="30.064878">
        <ele>148.810746</ele>
        <time>2026-07-22T16:08:33.857Z</time>
      </trkpt>
      <trkpt lat="50.660469" lon="30.063033">
        <ele>149.250294</ele>
        <time>2026-07-22T16:09:06.842Z</time>
      </trkpt>
      <trkpt lat="50.661245" lon="30.061105">
        <ele>148.427466</ele>
        <time>2026-07-22T16:09:36.209Z</time>
      </trkpt>
      <trkpt lat="50.662023" lon="30.059176">
        <ele>148.400006</ele>
        <time>2026-07-22T16:10:08.557Z</time>
      </trkpt>
      <trkpt lat="50.663786" lon="30.054881">
        <ele>148.415251</ele>
        <time>2026-07-22T16:11:20.502Z</time>
      </trkpt>
      <trkpt lat="50.666182" lon="30.049150">
        <ele>150.471624</ele>
        <time>2026-07-22T16:13:06.655Z</time>
      </trkpt>
      <trkpt lat="50.667060" lon="30.047049">
        <ele>147.160821</ele>
        <time>2026-07-22T16:13:33.928Z</time>
      </trkpt>
      <trkpt lat="50.668856" lon="30.042612">
        <ele>147.661685</ele>
        <time>2026-07-22T16:14:51.173Z</time>
      </trkpt>
      <trkpt lat="50.672427" lon="30.033787">
        <ele>145.581367</ele>
        <time>2026-07-22T16:17:11.656Z</time>
      </trkpt>
      <trkpt lat="50.673864" lon="30.030264">
        <ele>137.633156</ele>
        <time>2026-07-22T16:17:55.284Z</time>
      </trkpt>
      <trkpt lat="50.673992" lon="30.029717">
        <ele>136.749254</ele>
        <time>2026-07-22T16:18:01.586Z</time>
      </trkpt>
      <trkpt lat="50.674041" lon="30.028942">
        <ele>136.071165</ele>
        <time>2026-07-22T16:18:10.581Z</time>
      </trkpt>
      <trkpt lat="50.673923" lon="30.024907">
        <ele>134.274788</ele>
        <time>2026-07-22T16:19:01.864Z</time>
      </trkpt>
      <trkpt lat="50.673916" lon="30.023798">
        <ele>134.965427</ele>
        <time>2026-07-22T16:19:20.566Z</time>
      </trkpt>
      <trkpt lat="50.673927" lon="30.023374">
        <ele>134.946204</ele>
        <time>2026-07-22T16:19:26.842Z</time>
      </trkpt>
      <trkpt lat="50.673968" lon="30.022998">
        <ele>134.624389</ele>
        <time>2026-07-22T16:19:31.351Z</time>
      </trkpt>
      <trkpt lat="50.674062" lon="30.022692">
        <ele>134.051504</ele>
        <time>2026-07-22T16:19:34.901Z</time>
      </trkpt>
      <trkpt lat="50.674174" lon="30.022431">
        <ele>133.351375</ele>
        <time>2026-07-22T16:19:38.065Z</time>
      </trkpt>
      <trkpt lat="50.674386" lon="30.022155">
        <ele>132.463549</ele>
        <time>2026-07-22T16:19:42.662Z</time>
      </trkpt>
      <trkpt lat="50.675188" lon="30.021462">
        <ele>128.505955</ele>
        <time>2026-07-22T16:19:56.679Z</time>
      </trkpt>
      <trkpt lat="50.675570" lon="30.021069">
        <ele>127.444520</ele>
        <time>2026-07-22T16:20:04.413Z</time>
      </trkpt>
      <trkpt lat="50.676507" lon="30.019696">
        <ele>127.530361</ele>
        <time>2026-07-22T16:20:34.076Z</time>
      </trkpt>
      <trkpt lat="50.676625" lon="30.019473">
        <ele>127.698905</ele>
        <time>2026-07-22T16:20:38.883Z</time>
      </trkpt>
      <trkpt lat="50.676789" lon="30.019061">
        <ele>127.969896</ele>
        <time>2026-07-22T16:20:46.838Z</time>
      </trkpt>
      <trkpt lat="50.677613" lon="30.016669">
        <ele>128.870393</ele>
        <time>2026-07-22T16:21:28.986Z</time>
      </trkpt>
      <trkpt lat="50.678183" lon="30.015020">
        <ele>128.304784</ele>
        <time>2026-07-22T16:21:53.725Z</time>
      </trkpt>
      <trkpt lat="50.678471" lon="30.014085">
        <ele>127.246027</ele>
        <time>2026-07-22T16:22:05.148Z</time>
      </trkpt>
      <trkpt lat="50.678709" lon="30.013338">
        <ele>128.511006</ele>
        <time>2026-07-22T16:22:23.405Z</time>
      </trkpt>
      <trkpt lat="50.678908" lon="30.012512">
        <ele>129.354700</ele>
        <time>2026-07-22T16:22:38.953Z</time>
      </trkpt>
      <trkpt lat="50.680096" lon="30.006815">
        <ele>129.364559</ele>
        <time>2026-07-22T16:24:03.738Z</time>
      </trkpt>
      <trkpt lat="50.680169" lon="30.006382">
        <ele>129.094358</ele>
        <time>2026-07-22T16:24:09.183Z</time>
      </trkpt>
      <trkpt lat="50.680240" lon="30.005591">
        <ele>128.514494</ele>
        <time>2026-07-22T16:24:18.649Z</time>
      </trkpt>
      <trkpt lat="50.680263" lon="30.004195">
        <ele>127.841056</ele>
        <time>2026-07-22T16:24:35.804Z</time>
      </trkpt>
      <trkpt lat="50.680205" lon="30.003402">
        <ele>128.696527</ele>
        <time>2026-07-22T16:24:51.529Z</time>
      </trkpt>
      <trkpt lat="50.680138" lon="30.003055">
        <ele>128.946195</ele>
        <time>2026-07-22T16:24:57.232Z</time>
      </trkpt>
      <trkpt lat="50.679369" lon="29.999992">
        <ele>131.637833</ele>
        <time>2026-07-22T16:25:55.024Z</time>
      </trkpt>
      <trkpt lat="50.679805" lon="29.999471">
        <ele>131.397863</ele>
        <time>2026-07-22T16:26:05.986Z</time>
      </trkpt>
      <trkpt lat="50.680337" lon="29.998776">
        <ele>131.019688</ele>
        <time>2026-07-22T16:26:20.202Z</time>
      </trkpt>
      <trkpt lat="50.680807" lon="29.998162">
        <ele>130.820942</ele>
        <time>2026-07-22T16:26:32.841Z</time>
      </trkpt>
      <trkpt lat="50.681461" lon="29.997397">
        <ele>130.918146</ele>
        <time>2026-07-22T16:26:51.432Z</time>
      </trkpt>
      <trkpt lat="50.681633" lon="29.997265">
        <ele>131.000844</ele>
        <time>2026-07-22T16:26:56.140Z</time>
      </trkpt>
      <trkpt lat="50.681818" lon="29.997170">
        <ele>131.039661</ele>
        <time>2026-07-22T16:27:00.850Z</time>
      </trkpt>
      <trkpt lat="50.682306" lon="29.997094">
        <ele>130.968080</ele>
        <time>2026-07-22T16:27:11.517Z</time>
      </trkpt>
      <trkpt lat="50.683518" lon="29.997007">
        <ele>130.060550</ele>
        <time>2026-07-22T16:27:35.239Z</time>
      </trkpt>
      <trkpt lat="50.684838" lon="29.996820">
        <ele>131.150091</ele>
        <time>2026-07-22T16:28:09.387Z</time>
      </trkpt>
      <trkpt lat="50.686408" lon="29.996166">
        <ele>135.118011</ele>
        <time>2026-07-22T16:29:01.508Z</time>
      </trkpt>
      <trkpt lat="50.688046" lon="29.995215">
        <ele>139.895086</ele>
        <time>2026-07-22T16:29:59.972Z</time>
      </trkpt>
      <trkpt lat="50.688248" lon="29.995130">
        <ele>139.696554</ele>
        <time>2026-07-22T16:30:04.203Z</time>
      </trkpt>
      <trkpt lat="50.689210" lon="29.994644">
        <ele>134.602383</ele>
        <time>2026-07-22T16:30:19.148Z</time>
      </trkpt>
      <trkpt lat="50.689591" lon="29.994581">
        <ele>134.854673</ele>
        <time>2026-07-22T16:30:30.589Z</time>
      </trkpt>
      <trkpt lat="50.689969" lon="29.994638">
        <ele>135.062387</ele>
        <time>2026-07-22T16:30:39.812Z</time>
      </trkpt>
      <trkpt lat="50.690308" lon="29.994752">
        <ele>135.161309</ele>
        <time>2026-07-22T16:30:47.090Z</time>
      </trkpt>
      <trkpt lat="50.691459" lon="29.995154">
        <ele>137.301656</ele>
        <time>2026-07-22T16:31:23.029Z</time>
      </trkpt>
      <trkpt lat="50.692546" lon="29.995487">
        <ele>137.851061</ele>
        <time>2026-07-22T16:31:48.744Z</time>
      </trkpt>
      <trkpt lat="50.692608" lon="29.995508">
        <ele>137.956960</ele>
        <time>2026-07-22T16:31:51.461Z</time>
      </trkpt>
      <trkpt lat="50.693254" lon="29.995762">
        <ele>138.907129</ele>
        <time>2026-07-22T16:32:09.825Z</time>
      </trkpt>
      <trkpt lat="50.694017" lon="29.996150">
        <ele>140.141076</ele>
        <time>2026-07-22T16:32:32.587Z</time>
      </trkpt>
      <trkpt lat="50.695360" lon="29.997077">
        <ele>143.202678</ele>
        <time>2026-07-22T16:33:17.388Z</time>
      </trkpt>
      <trkpt lat="50.696218" lon="29.997774">
        <ele>145.130750</ele>
        <time>2026-07-22T16:33:47.467Z</time>
      </trkpt>
      <trkpt lat="50.697670" lon="29.999126">
        <ele>141.859165</ele>
        <time>2026-07-22T16:34:16.865Z</time>
      </trkpt>
      <trkpt lat="50.700227" lon="30.001647">
        <ele>138.832381</ele>
        <time>2026-07-22T16:35:15.074Z</time>
      </trkpt>
      <trkpt lat="50.700856" lon="30.002268">
        <ele>138.769206</ele>
        <time>2026-07-22T16:35:31.959Z</time>
      </trkpt>
      <trkpt lat="50.703249" lon="30.004419">
        <ele>134.059136</ele>
        <time>2026-07-22T16:36:21.646Z</time>
      </trkpt>
      <trkpt lat="50.703580" lon="30.004778">
        <ele>132.933956</ele>
        <time>2026-07-22T16:36:27.842Z</time>
      </trkpt>
      <trkpt lat="50.708583" lon="30.009630">
        <ele>140.334009</ele>
        <time>2026-07-22T16:39:09.801Z</time>
      </trkpt>
      <trkpt lat="50.709342" lon="30.010307">
        <ele>141.699778</ele>
        <time>2026-07-22T16:39:35.257Z</time>
      </trkpt>
      <trkpt lat="50.709885" lon="30.010643">
        <ele>141.882930</ele>
        <time>2026-07-22T16:39:48.488Z</time>
      </trkpt>
      <trkpt lat="50.713138" lon="30.012162">
        <ele>140.804538</ele>
        <time>2026-07-22T16:41:00.112Z</time>
      </trkpt>
      <trkpt lat="50.715952" lon="30.013475">
        <ele>140.314075</ele>
        <time>2026-07-22T16:42:03.426Z</time>
      </trkpt>
      <trkpt lat="50.717212" lon="30.014027">
        <ele>140.587121</ele>
        <time>2026-07-22T16:42:33.722Z</time>
      </trkpt>
      <trkpt lat="50.718909" lon="30.015157">
        <ele>140.401370</ele>
        <time>2026-07-22T16:43:13.681Z</time>
      </trkpt>
      <trkpt lat="50.720098" lon="30.016365">
        <ele>140.256001</ele>
        <time>2026-07-22T16:43:44.774Z</time>
      </trkpt>
      <trkpt lat="50.722401" lon="30.018733">
        <ele>138.690302</ele>
        <time>2026-07-22T16:44:40.479Z</time>
      </trkpt>
      <trkpt lat="50.723552" lon="30.019922">
        <ele>139.934967</ele>
        <time>2026-07-22T16:45:16.379Z</time>
      </trkpt>
      <trkpt lat="50.724212" lon="30.020453">
        <ele>139.790637</ele>
        <time>2026-07-22T16:45:32.259Z</time>
      </trkpt>
      <trkpt lat="50.724649" lon="30.020849">
        <ele>139.531760</ele>
        <time>2026-07-22T16:45:42.444Z</time>
      </trkpt>
      <trkpt lat="50.725175" lon="30.021410">
        <ele>139.532285</ele>
        <time>2026-07-22T16:45:56.470Z</time>
      </trkpt>
      <trkpt lat="50.725722" lon="30.021894">
        <ele>140.127827</ele>
        <time>2026-07-22T16:46:13.078Z</time>
      </trkpt>
      <trkpt lat="50.726364" lon="30.022204">
        <ele>141.192356</ele>
        <time>2026-07-22T16:46:32.196Z</time>
      </trkpt>
      <trkpt lat="50.726672" lon="30.022444">
        <ele>141.611189</ele>
        <time>2026-07-22T16:46:41.848Z</time>
      </trkpt>
      <trkpt lat="50.726772" lon="30.022563">
        <ele>141.660313</ele>
        <time>2026-07-22T16:46:44.856Z</time>
      </trkpt>
      <trkpt lat="50.727443" lon="30.023360">
        <ele>140.934147</ele>
        <time>2026-07-22T16:47:01.189Z</time>
      </trkpt>
      <trkpt lat="50.727983" lon="30.023995">
        <ele>139.710452</ele>
        <time>2026-07-22T16:47:13.047Z</time>
      </trkpt>
      <trkpt lat="50.728321" lon="30.024209">
        <ele>139.530681</ele>
        <time>2026-07-22T16:47:21.128Z</time>
      </trkpt>
      <trkpt lat="50.729252" lon="30.024470">
        <ele>138.492203</ele>
        <time>2026-07-22T16:47:39.089Z</time>
      </trkpt>
      <trkpt lat="50.729559" lon="30.024481">
        <ele>138.081647</ele>
        <time>2026-07-22T16:47:44.830Z</time>
      </trkpt>
      <trkpt lat="50.729573" lon="30.024482">
        <ele>138.062020</ele>
        <time>2026-07-22T16:47:45.086Z</time>
      </trkpt>
      <trkpt lat="50.729853" lon="30.024420">
        <ele>137.422180</ele>
        <time>2026-07-22T16:47:50.018Z</time>
      </trkpt>
      <trkpt lat="50.729976" lon="30.024379">
        <ele>136.963107</ele>
        <time>2026-07-22T16:47:51.970Z</time>
      </trkpt>
      <trkpt lat="50.730232" lon="30.024294">
        <ele>136.128534</ele>
        <time>2026-07-22T16:47:56.042Z</time>
      </trkpt>
      <trkpt lat="50.730983" lon="30.023879">
        <ele>137.259475</ele>
        <time>2026-07-22T16:48:19.318Z</time>
      </trkpt>
      <trkpt lat="50.731068" lon="30.023822">
        <ele>137.382378</ele>
        <time>2026-07-22T16:48:21.817Z</time>
      </trkpt>
      <trkpt lat="50.731365" lon="30.023621">
        <ele>137.677301</ele>
        <time>2026-07-22T16:48:30.065Z</time>
      </trkpt>
      <trkpt lat="50.731526" lon="30.023473">
        <ele>137.772346</ele>
        <time>2026-07-22T16:48:34.582Z</time>
      </trkpt>
      <trkpt lat="50.731868" lon="30.023087">
        <ele>137.715852</ele>
        <time>2026-07-22T16:48:43.553Z</time>
      </trkpt>
      <trkpt lat="50.732147" lon="30.022690">
        <ele>137.757573</ele>
        <time>2026-07-22T16:48:52.402Z</time>
      </trkpt>
      <trkpt lat="50.732409" lon="30.022254">
        <ele>137.539453</ele>
        <time>2026-07-22T16:49:00.362Z</time>
      </trkpt>
      <trkpt lat="50.732593" lon="30.022016">
        <ele>137.101990</ele>
        <time>2026-07-22T16:49:04.615Z</time>
      </trkpt>
      <trkpt lat="50.732789" lon="30.021828">
        <ele>136.312244</ele>
        <time>2026-07-22T16:49:08.294Z</time>
      </trkpt>
      <trkpt lat="50.733990" lon="30.021375">
        <ele>130.975214</ele>
        <time>2026-07-22T16:49:27.266Z</time>
      </trkpt>
      <trkpt lat="50.734476" lon="30.021141">
        <ele>130.900673</ele>
        <time>2026-07-22T16:49:38.741Z</time>
      </trkpt>
      <trkpt lat="50.734903" lon="30.020835">
        <ele>131.085488</ele>
        <time>2026-07-22T16:49:49.929Z</time>
      </trkpt>
      <trkpt lat="50.735296" lon="30.020376">
        <ele>131.954654</ele>
        <time>2026-07-22T16:50:04.644Z</time>
      </trkpt>
      <trkpt lat="50.735995" lon="30.019406">
        <ele>133.316018</ele>
        <time>2026-07-22T16:50:31.024Z</time>
      </trkpt>
      <trkpt lat="50.736803" lon="30.018356">
        <ele>133.380058</ele>
        <time>2026-07-22T16:50:54.314Z</time>
      </trkpt>
      <trkpt lat="50.736986" lon="30.018151">
        <ele>133.322975</ele>
        <time>2026-07-22T16:50:58.751Z</time>
      </trkpt>
      <trkpt lat="50.737133" lon="30.017988">
        <ele>133.339038</ele>
        <time>2026-07-22T16:51:02.696Z</time>
      </trkpt>
      <trkpt lat="50.737456" lon="30.017717">
        <ele>134.920076</ele>
        <time>2026-07-22T16:51:17.023Z</time>
      </trkpt>
      <trkpt lat="50.737613" lon="30.017630">
        <ele>135.894443</ele>
        <time>2026-07-22T16:51:25.356Z</time>
      </trkpt>
      <trkpt lat="50.738018" lon="30.017467">
        <ele>138.409777</ele>
        <time>2026-07-22T16:51:45.392Z</time>
      </trkpt>
      <trkpt lat="50.738364" lon="30.017418">
        <ele>139.340108</ele>
        <time>2026-07-22T16:51:56.383Z</time>
      </trkpt>
      <trkpt lat="50.738759" lon="30.017494">
        <ele>139.754882</ele>
        <time>2026-07-22T16:52:06.629Z</time>
      </trkpt>
      <trkpt lat="50.739752" lon="30.017751">
        <ele>140.035757</ele>
        <time>2026-07-22T16:52:29.993Z</time>
      </trkpt>
      <trkpt lat="50.740867" lon="30.018131">
        <ele>141.513349</ele>
        <time>2026-07-22T16:53:01.814Z</time>
      </trkpt>
      <trkpt lat="50.743429" lon="30.018915">
        <ele>139.516623</ele>
        <time>2026-07-22T16:53:53.067Z</time>
      </trkpt>
      <trkpt lat="50.744709" lon="30.019683">
        <ele>141.317155</ele>
        <time>2026-07-22T16:54:31.340Z</time>
      </trkpt>
      <trkpt lat="50.745404" lon="30.020306">
        <ele>141.016507</ele>
        <time>2026-07-22T16:54:48.176Z</time>
      </trkpt>
      <trkpt lat="50.747737" lon="30.022549">
        <ele>137.251947</ele>
        <time>2026-07-22T16:55:38.393Z</time>
      </trkpt>
      <trkpt lat="50.749849" lon="30.024575">
        <ele>137.181298</ele>
        <time>2026-07-22T16:56:33.341Z</time>
      </trkpt>
      <trkpt lat="50.750963" lon="30.025649">
        <ele>138.145924</ele>
        <time>2026-07-22T16:57:06.562Z</time>
      </trkpt>
      <trkpt lat="50.752064" lon="30.026611">
        <ele>138.243187</ele>
        <time>2026-07-22T16:57:34.869Z</time>
      </trkpt>
      <trkpt lat="50.752662" lon="30.026902">
        <ele>138.817290</ele>
        <time>2026-07-22T16:57:51.272Z</time>
      </trkpt>
      <trkpt lat="50.754768" lon="30.027880">
        <ele>137.874186</ele>
        <time>2026-07-22T16:58:36.674Z</time>
      </trkpt>
      <trkpt lat="50.756720" lon="30.028699">
        <ele>136.375506</ele>
        <time>2026-07-22T16:59:17.033Z</time>
      </trkpt>
      <trkpt lat="50.758680" lon="30.029659">
        <ele>134.344285</ele>
        <time>2026-07-22T16:59:56.392Z</time>
      </trkpt>
      <trkpt lat="50.760231" lon="30.030800">
        <ele>133.983335</ele>
        <time>2026-07-22T17:00:33.181Z</time>
      </trkpt>
      <trkpt lat="50.761040" lon="30.031396">
        <ele>135.319163</ele>
        <time>2026-07-22T17:00:58.832Z</time>
      </trkpt>
      <trkpt lat="50.761817" lon="30.032015">
        <ele>135.078456</ele>
        <time>2026-07-22T17:01:17.052Z</time>
      </trkpt>
      <trkpt lat="50.762600" lon="30.032529">
        <ele>134.192563</ele>
        <time>2026-07-22T17:01:33.382Z</time>
      </trkpt>
      <trkpt lat="50.765014" lon="30.033804">
        <ele>131.121191</ele>
        <time>2026-07-22T17:02:21.270Z</time>
      </trkpt>
      <trkpt lat="50.766232" lon="30.034419">
        <ele>130.342054</ele>
        <time>2026-07-22T17:02:47.135Z</time>
      </trkpt>
      <trkpt lat="50.769804" lon="30.036213">
        <ele>131.249163</ele>
        <time>2026-07-22T17:04:14.675Z</time>
      </trkpt>
      <trkpt lat="50.770691" lon="30.036618">
        <ele>131.021837</ele>
        <time>2026-07-22T17:04:34.059Z</time>
      </trkpt>
      <trkpt lat="50.776586" lon="30.039634">
        <ele>131.475766</ele>
        <time>2026-07-22T17:06:53.298Z</time>
      </trkpt>
      <trkpt lat="50.778039" lon="30.040353">
        <ele>134.415085</ele>
        <time>2026-07-22T17:07:39.625Z</time>
      </trkpt>
      <trkpt lat="50.784048" lon="30.043315">
        <ele>133.756362</ele>
        <time>2026-07-22T17:09:56.941Z</time>
      </trkpt>
      <trkpt lat="50.785156" lon="30.043874">
        <ele>132.471242</ele>
        <time>2026-07-22T17:10:18.834Z</time>
      </trkpt>
      <trkpt lat="50.787273" lon="30.044389">
        <ele>134.634653</ele>
        <time>2026-07-22T17:11:15.892Z</time>
      </trkpt>
      <trkpt lat="50.789287" lon="30.044571">
        <ele>134.530843</ele>
        <time>2026-07-22T17:11:59.908Z</time>
      </trkpt>
      <trkpt lat="50.791283" lon="30.044476">
        <ele>135.279776</ele>
        <time>2026-07-22T17:12:47.792Z</time>
      </trkpt>
      <trkpt lat="50.791628" lon="30.044474">
        <ele>134.740181</ele>
        <time>2026-07-22T17:12:54.115Z</time>
      </trkpt>
      <trkpt lat="50.793481" lon="30.044465">
        <ele>128.395263</ele>
        <time>2026-07-22T17:13:23.721Z</time>
      </trkpt>
      <trkpt lat="50.793891" lon="30.044462">
        <ele>128.698777</ele>
        <time>2026-07-22T17:13:34.518Z</time>
      </trkpt>
      <trkpt lat="50.794437" lon="30.044459">
        <ele>130.482952</ele>
        <time>2026-07-22T17:13:56.192Z</time>
      </trkpt>
      <trkpt lat="50.798814" lon="30.044791">
        <ele>126.919642</ele>
        <time>2026-07-22T17:15:21.297Z</time>
      </trkpt>
      <trkpt lat="50.799323" lon="30.044849">
        <ele>128.070327</ele>
        <time>2026-07-22T17:15:37.579Z</time>
      </trkpt>
      <trkpt lat="50.800185" lon="30.044947">
        <ele>129.735347</ele>
        <time>2026-07-22T17:16:03.820Z</time>
      </trkpt>
      <trkpt lat="50.802337" lon="30.047268">
        <ele>129.811302</ele>
        <time>2026-07-22T17:17:01.722Z</time>
      </trkpt>
      <trkpt lat="50.802730" lon="30.047693">
        <ele>129.874596</ele>
        <time>2026-07-22T17:17:12.749Z</time>
      </trkpt>
      <trkpt lat="50.803211" lon="30.048321">
        <ele>129.758569</ele>
        <time>2026-07-22T17:17:25.769Z</time>
      </trkpt>
      <trkpt lat="50.812307" lon="30.063060">
        <ele>138.846659</ele>
        <time>2026-07-22T17:22:52.720Z</time>
      </trkpt>
      <trkpt lat="50.813689" lon="30.065172">
        <ele>135.063440</ele>
        <time>2026-07-22T17:23:26.414Z</time>
      </trkpt>
      <trkpt lat="50.814450" lon="30.065899">
        <ele>132.382915</ele>
        <time>2026-07-22T17:23:40.781Z</time>
      </trkpt>
      <trkpt lat="50.815568" lon="30.066620">
        <ele>134.421889</ele>
        <time>2026-07-22T17:24:17.548Z</time>
      </trkpt>
      <trkpt lat="50.818425" lon="30.068484">
        <ele>132.689012</ele>
        <time>2026-07-22T17:25:19.999Z</time>
      </trkpt>
      <trkpt lat="50.824117" lon="30.072985">
        <ele>126.635780</ele>
        <time>2026-07-22T17:27:23.235Z</time>
      </trkpt>
      <trkpt lat="50.829012" lon="30.076817">
        <ele>123.900824</ele>
        <time>2026-07-22T17:29:15.752Z</time>
      </trkpt>
      <trkpt lat="50.830889" lon="30.078260">
        <ele>122.932824</ele>
        <time>2026-07-22T17:29:58.631Z</time>
      </trkpt>
      <trkpt lat="50.831066" lon="30.078502">
        <ele>123.003919</ele>
        <time>2026-07-22T17:30:04.119Z</time>
      </trkpt>
      <trkpt lat="50.831278" lon="30.077991">
        <ele>123.145804</ele>
        <time>2026-07-22T17:30:13.738Z</time>
      </trkpt>
      <trkpt lat="50.831066" lon="30.078502">
        <ele>123.038469</ele>
        <time>2026-07-22T17:30:21.532Z</time>
      </trkpt>
      <trkpt lat="50.829271" lon="30.082758">
        <ele>122.841381</ele>
        <time>2026-07-22T17:31:32.566Z</time>
      </trkpt>
      <trkpt lat="50.827590" lon="30.086809">
        <ele>125.101357</ele>
        <time>2026-07-22T17:32:50.670Z</time>
      </trkpt>
      <trkpt lat="50.827055" lon="30.088099">
        <ele>123.782764</ele>
        <time>2026-07-22T17:33:08.267Z</time>
      </trkpt>
      <trkpt lat="50.826772" lon="30.088793">
        <ele>124.539616</ele>
        <time>2026-07-22T17:33:23.726Z</time>
      </trkpt>
      <trkpt lat="50.826669" lon="30.089141">
        <ele>124.458954</ele>
        <time>2026-07-22T17:33:28.990Z</time>
      </trkpt>
      <trkpt lat="50.826584" lon="30.089577">
        <ele>123.773766</ele>
        <time>2026-07-22T17:33:33.548Z</time>
      </trkpt>
      <trkpt lat="50.826404" lon="30.090448">
        <ele>123.539494</ele>
        <time>2026-07-22T17:33:46.355Z</time>
      </trkpt>
      <trkpt lat="50.826281" lon="30.090906">
        <ele>123.921058</ele>
        <time>2026-07-22T17:33:55.197Z</time>
      </trkpt>
      <trkpt lat="50.826133" lon="30.091319">
        <ele>124.383305</ele>
        <time>2026-07-22T17:34:03.928Z</time>
      </trkpt>
      <trkpt lat="50.824539" lon="30.095330">
        <ele>128.317756</ele>
        <time>2026-07-22T17:35:26.462Z</time>
      </trkpt>
      <trkpt lat="50.824247" lon="30.095911">
        <ele>127.681670</ele>
        <time>2026-07-22T17:35:34.992Z</time>
      </trkpt>
      <trkpt lat="50.823265" lon="30.097556">
        <ele>125.088324</ele>
        <time>2026-07-22T17:36:00.259Z</time>
      </trkpt>
      <trkpt lat="50.822916" lon="30.098087">
        <ele>125.141313</ele>
        <time>2026-07-22T17:36:11.896Z</time>
      </trkpt>
      <trkpt lat="50.822707" lon="30.098320">
        <ele>125.348939</ele>
        <time>2026-07-22T17:36:18.556Z</time>
      </trkpt>
      <trkpt lat="50.821801" lon="30.099140">
        <ele>125.068490</ele>
        <time>2026-07-22T17:36:42.178Z</time>
      </trkpt>
      <trkpt lat="50.821713" lon="30.099217">
        <ele>124.594547</ele>
        <time>2026-07-22T17:36:43.588Z</time>
      </trkpt>
      <trkpt lat="50.821492" lon="30.099436">
        <ele>122.969126</ele>
        <time>2026-07-22T17:36:47.286Z</time>
      </trkpt>
      <trkpt lat="50.821142" lon="30.099882">
        <ele>123.393291</ele>
        <time>2026-07-22T17:37:00.189Z</time>
      </trkpt>
      <trkpt lat="50.820937" lon="30.100245">
        <ele>122.946720</ele>
        <time>2026-07-22T17:37:05.708Z</time>
      </trkpt>
      <trkpt lat="50.820720" lon="30.100724">
        <ele>122.512491</ele>
        <time>2026-07-22T17:37:12.697Z</time>
      </trkpt>
      <trkpt lat="50.820573" lon="30.101145">
        <ele>122.522535</ele>
        <time>2026-07-22T17:37:18.833Z</time>
      </trkpt>
      <trkpt lat="50.820438" lon="30.101694">
        <ele>123.454226</ele>
        <time>2026-07-22T17:37:32.454Z</time>
      </trkpt>
      <trkpt lat="50.820132" lon="30.103556">
        <ele>122.130945</ele>
        <time>2026-07-22T17:37:55.249Z</time>
      </trkpt>
      <trkpt lat="50.819934" lon="30.104800">
        <ele>121.445947</ele>
        <time>2026-07-22T17:38:11.256Z</time>
      </trkpt>
      <trkpt lat="50.819587" lon="30.106965">
        <ele>122.740508</ele>
        <time>2026-07-22T17:38:45.696Z</time>
      </trkpt>
      <trkpt lat="50.819449" lon="30.107833">
        <ele>126.987315</ele>
        <time>2026-07-22T17:39:19.332Z</time>
      </trkpt>
      <trkpt lat="50.819222" lon="30.109061">
        <ele>126.826611</ele>
        <time>2026-07-22T17:39:35.684Z</time>
      </trkpt>
      <trkpt lat="50.818939" lon="30.110060">
        <ele>125.951509</ele>
        <time>2026-07-22T17:39:48.259Z</time>
      </trkpt>
      <trkpt lat="50.818714" lon="30.110734">
        <ele>125.981543</ele>
        <time>2026-07-22T17:39:59.473Z</time>
      </trkpt>
      <trkpt lat="50.818303" lon="30.111720">
        <ele>127.175464</ele>
        <time>2026-07-22T17:40:21.041Z</time>
      </trkpt>
      <trkpt lat="50.817905" lon="30.112483">
        <ele>127.781038</ele>
        <time>2026-07-22T17:40:37.467Z</time>
      </trkpt>
      <trkpt lat="50.812635" lon="30.121194">
        <ele>132.104547</ele>
        <time>2026-07-22T17:43:43.985Z</time>
      </trkpt>
      <trkpt lat="50.812451" lon="30.121585">
        <ele>132.296423</ele>
        <time>2026-07-22T17:43:51.641Z</time>
      </trkpt>
      <trkpt lat="50.812360" lon="30.121846">
        <ele>132.353092</ele>
        <time>2026-07-22T17:43:56.285Z</time>
      </trkpt>
      <trkpt lat="50.812282" lon="30.122079">
        <ele>132.270582</ele>
        <time>2026-07-22T17:43:59.613Z</time>
      </trkpt>
      <trkpt lat="50.812133" lon="30.122652">
        <ele>131.956920</ele>
        <time>2026-07-22T17:44:07.331Z</time>
      </trkpt>
      <trkpt lat="50.811778" lon="30.125228">
        <ele>131.567250</ele>
        <time>2026-07-22T17:44:42.633Z</time>
      </trkpt>
      <trkpt lat="50.810996" lon="30.131021">
        <ele>135.548018</ele>
        <time>2026-07-22T17:46:23.311Z</time>
      </trkpt>
      <trkpt lat="50.810704" lon="30.133358">
        <ele>133.041041</ele>
        <time>2026-07-22T17:46:49.959Z</time>
      </trkpt>
      <trkpt lat="50.810236" lon="30.136841">
        <ele>137.018414</ele>
        <time>2026-07-22T17:47:56.805Z</time>
      </trkpt>
      <trkpt lat="50.810113" lon="30.137519">
        <ele>136.937523</ele>
        <time>2026-07-22T17:48:05.947Z</time>
      </trkpt>
      <trkpt lat="50.808501" lon="30.145448">
        <ele>139.980756</ele>
        <time>2026-07-22T17:50:15.547Z</time>
      </trkpt>
      <trkpt lat="50.808345" lon="30.146042">
        <ele>140.135594</ele>
        <time>2026-07-22T17:50:24.696Z</time>
      </trkpt>
      <trkpt lat="50.807148" lon="30.149200">
        <ele>141.857994</ele>
        <time>2026-07-22T17:51:23.834Z</time>
      </trkpt>
      <trkpt lat="50.807084" lon="30.149368">
        <ele>141.893194</ele>
        <time>2026-07-22T17:51:26.726Z</time>
      </trkpt>
      <trkpt lat="50.806620" lon="30.150664">
        <ele>141.780168</ele>
        <time>2026-07-22T17:51:47.215Z</time>
      </trkpt>
      <trkpt lat="50.805403" lon="30.153775">
        <ele>141.049606</ele>
        <time>2026-07-22T17:52:35.750Z</time>
      </trkpt>
      <trkpt lat="50.804908" lon="30.155149">
        <ele>141.585055</ele>
        <time>2026-07-22T17:53:00.270Z</time>
      </trkpt>
      <trkpt lat="50.804575" lon="30.156468">
        <ele>141.820823</ele>
        <time>2026-07-22T17:53:20.989Z</time>
      </trkpt>
      <trkpt lat="50.803042" lon="30.164161">
        <ele>145.600024</ele>
        <time>2026-07-22T17:55:29.753Z</time>
      </trkpt>
      <trkpt lat="50.802921" lon="30.164768">
        <ele>145.376622</ele>
        <time>2026-07-22T17:55:39.978Z</time>
      </trkpt>
      <trkpt lat="50.802855" lon="30.165099">
        <ele>143.842666</ele>
        <time>2026-07-22T17:55:43.002Z</time>
      </trkpt>
      <trkpt lat="50.802831" lon="30.165281">
        <ele>142.799136</ele>
        <time>2026-07-22T17:55:44.533Z</time>
      </trkpt>
      <trkpt lat="50.802548" lon="30.168146">
        <ele>142.214830</ele>
        <time>2026-07-22T17:56:24.975Z</time>
      </trkpt>
      <trkpt lat="50.802181" lon="30.171808">
        <ele>142.734924</ele>
        <time>2026-07-22T17:57:19.064Z</time>
      </trkpt>
      <trkpt lat="50.801985" lon="30.173795">
        <ele>143.819322</ele>
        <time>2026-07-22T17:57:51.578Z</time>
      </trkpt>
      <trkpt lat="50.802238" lon="30.179284">
        <ele>147.839744</ele>
        <time>2026-07-22T17:59:25.021Z</time>
      </trkpt>
      <trkpt lat="50.802285" lon="30.180313">
        <ele>148.995206</ele>
        <time>2026-07-22T17:59:44.669Z</time>
      </trkpt>
      <trkpt lat="50.802324" lon="30.181160">
        <ele>149.091605</ele>
        <time>2026-07-22T17:59:56.464Z</time>
      </trkpt>
      <trkpt lat="50.802352" lon="30.181755">
        <ele>149.002150</ele>
        <time>2026-07-22T18:00:04.577Z</time>
      </trkpt>
      <trkpt lat="50.799867" lon="30.190160">
        <ele>147.640863</ele>
        <time>2026-07-22T18:02:10.295Z</time>
      </trkpt>
      <trkpt lat="50.799410" lon="30.191820">
        <ele>145.942335</ele>
        <time>2026-07-22T18:02:31.118Z</time>
      </trkpt>
      <trkpt lat="50.799135" lon="30.194008">
        <ele>145.299098</ele>
        <time>2026-07-22T18:03:00.434Z</time>
      </trkpt>
      <trkpt lat="50.798910" lon="30.196835">
        <ele>144.498715</ele>
        <time>2026-07-22T18:03:37.531Z</time>
      </trkpt>
      <trkpt lat="50.798830" lon="30.197833">
        <ele>144.229624</ele>
        <time>2026-07-22T18:03:50.716Z</time>
      </trkpt>
      <trkpt lat="50.796992" lon="30.212609">
        <ele>149.536103</ele>
        <time>2026-07-22T18:07:44.176Z</time>
      </trkpt>
      <trkpt lat="50.796690" lon="30.214679">
        <ele>149.291753</ele>
        <time>2026-07-22T18:08:12.655Z</time>
      </trkpt>
      <trkpt lat="50.795740" lon="30.216492">
        <ele>150.664967</ele>
        <time>2026-07-22T18:08:51.723Z</time>
      </trkpt>
      <trkpt lat="50.793667" lon="30.220452">
        <ele>150.478078</ele>
        <time>2026-07-22T18:10:03.496Z</time>
      </trkpt>
      <trkpt lat="50.792828" lon="30.222054">
        <ele>148.604782</ele>
        <time>2026-07-22T18:10:27.594Z</time>
      </trkpt>
      <trkpt lat="50.792513" lon="30.222655">
        <ele>148.001328</ele>
        <time>2026-07-22T18:10:36.666Z</time>
      </trkpt>
      <trkpt lat="50.791618" lon="30.229159">
        <ele>146.403465</ele>
        <time>2026-07-22T18:12:05.104Z</time>
      </trkpt>
      <trkpt lat="50.788677" lon="30.250461">
        <ele>142.600617</ele>
        <time>2026-07-22T18:16:57.322Z</time>
      </trkpt>
      <trkpt lat="50.788347" lon="30.252376">
        <ele>143.521114</ele>
        <time>2026-07-22T18:17:29.273Z</time>
      </trkpt>
      <trkpt lat="50.788147" lon="30.253861">
        <ele>144.899169</ele>
        <time>2026-07-22T18:17:56.162Z</time>
      </trkpt>
      <trkpt lat="50.787734" lon="30.256964">
        <ele>147.798017</ele>
        <time>2026-07-22T18:18:52.443Z</time>
      </trkpt>
      <trkpt lat="50.787646" lon="30.257626">
        <ele>148.279792</ele>
        <time>2026-07-22T18:19:04.407Z</time>
      </trkpt>
      <trkpt lat="50.787340" lon="30.259945">
        <ele>146.367270</ele>
        <time>2026-07-22T18:19:32.094Z</time>
      </trkpt>
      <trkpt lat="50.786689" lon="30.265160">
        <ele>146.470625</ele>
        <time>2026-07-22T18:20:48.181Z</time>
      </trkpt>
      <trkpt lat="50.786513" lon="30.266793">
        <ele>144.086687</ele>
        <time>2026-07-22T18:21:05.862Z</time>
      </trkpt>
      <trkpt lat="50.785882" lon="30.272888">
        <ele>142.139284</ele>
        <time>2026-07-22T18:22:26.852Z</time>
      </trkpt>
      <trkpt lat="50.785246" lon="30.277255">
        <ele>137.266570</ele>
        <time>2026-07-22T18:23:17.757Z</time>
      </trkpt>
      <trkpt lat="50.784824" lon="30.283275">
        <ele>128.941493</ele>
        <time>2026-07-22T18:24:24.331Z</time>
      </trkpt>
      <trkpt lat="50.784721" lon="30.284589">
        <ele>125.717972</ele>
        <time>2026-07-22T18:24:37.349Z</time>
      </trkpt>
      <trkpt lat="50.784592" lon="30.286248">
        <ele>124.186525</ele>
        <time>2026-07-22T18:24:57.213Z</time>
      </trkpt>
      <trkpt lat="50.784418" lon="30.288451">
        <ele>121.905452</ele>
        <time>2026-07-22T18:25:22.541Z</time>
      </trkpt>
      <trkpt lat="50.784337" lon="30.289513">
        <ele>120.918744</ele>
        <time>2026-07-22T18:25:35.027Z</time>
      </trkpt>
      <trkpt lat="50.784260" lon="30.290188">
        <ele>120.508581</ele>
        <time>2026-07-22T18:25:43.385Z</time>
      </trkpt>
      <trkpt lat="50.784175" lon="30.290679">
        <ele>120.304879</ele>
        <time>2026-07-22T18:25:49.977Z</time>
      </trkpt>
      <trkpt lat="50.783659" lon="30.293343">
        <ele>119.230747</ele>
        <time>2026-07-22T18:26:25.801Z</time>
      </trkpt>
      <trkpt lat="50.783494" lon="30.294188">
        <ele>118.315834</ele>
        <time>2026-07-22T18:26:35.869Z</time>
      </trkpt>
      <trkpt lat="50.783392" lon="30.294707">
        <ele>118.032901</ele>
        <time>2026-07-22T18:26:42.208Z</time>
      </trkpt>
      <trkpt lat="50.782264" lon="30.293723">
        <ele>120.627874</ele>
        <time>2026-07-22T18:27:21.841Z</time>
      </trkpt>
      <trkpt lat="50.781774" lon="30.293162">
        <ele>122.506314</ele>
        <time>2026-07-22T18:27:43.138Z</time>
      </trkpt>
      <trkpt lat="50.781570" lon="30.293058">
        <ele>123.207943</ele>
        <time>2026-07-22T18:27:50.729Z</time>
      </trkpt>
      <trkpt lat="50.781395" lon="30.293035">
        <ele>123.765044</ele>
        <time>2026-07-22T18:27:56.841Z</time>
      </trkpt>
      <trkpt lat="50.781003" lon="30.293116">
        <ele>124.906652</ele>
        <time>2026-07-22T18:28:10.155Z</time>
      </trkpt>
      <trkpt lat="50.780796" lon="30.293118">
        <ele>125.522803</ele>
        <time>2026-07-22T18:28:16.996Z</time>
      </trkpt>
      <trkpt lat="50.780593" lon="30.293062">
        <ele>126.245379</ele>
        <time>2026-07-22T18:28:24.509Z</time>
      </trkpt>
      <trkpt lat="50.780371" lon="30.292899">
        <ele>127.362785</ele>
        <time>2026-07-22T18:28:34.584Z</time>
      </trkpt>
      <trkpt lat="50.780152" lon="30.292622">
        <ele>128.422695</ele>
        <time>2026-07-22T18:28:45.487Z</time>
      </trkpt>
      <trkpt lat="50.779300" lon="30.291296">
        <ele>131.920298</ele>
        <time>2026-07-22T18:29:25.946Z</time>
      </trkpt>
      <trkpt lat="50.778949" lon="30.290424">
        <ele>133.019142</ele>
        <time>2026-07-22T18:29:44.010Z</time>
      </trkpt>
      <trkpt lat="50.778242" lon="30.288702">
        <ele>137.292227</ele>
        <time>2026-07-22T18:30:31.280Z</time>
      </trkpt>
      <trkpt lat="50.776381" lon="30.284154">
        <ele>140.862322</ele>
        <time>2026-07-22T18:32:01.138Z</time>
      </trkpt>
      <trkpt lat="50.775667" lon="30.282404">
        <ele>141.254969</ele>
        <time>2026-07-22T18:32:32.157Z</time>
      </trkpt>
      <trkpt lat="50.771497" lon="30.273425">
        <ele>140.316851</ele>
        <time>2026-07-22T18:35:04.953Z</time>
      </trkpt>
      <trkpt lat="50.768497" lon="30.266850">
        <ele>141.338302</ele>
        <time>2026-07-22T18:37:03.773Z</time>
      </trkpt>
      <trkpt lat="50.767197" lon="30.264030">
        <ele>135.237248</ele>
        <time>2026-07-22T18:37:40.753Z</time>
      </trkpt>
      <trkpt lat="50.766029" lon="30.261694">
        <ele>124.776137</ele>
        <time>2026-07-22T18:38:08.598Z</time>
      </trkpt>
      <trkpt lat="50.765391" lon="30.260761">
        <ele>119.902114</ele>
        <time>2026-07-22T18:38:21.286Z</time>
      </trkpt>
      <trkpt lat="50.765048" lon="30.260300">
        <ele>120.774371</ele>
        <time>2026-07-22T18:38:37.087Z</time>
      </trkpt>
      <trkpt lat="50.764642" lon="30.259755">
        <ele>121.419296</ele>
        <time>2026-07-22T18:38:50.896Z</time>
      </trkpt>
      <trkpt lat="50.763136" lon="30.257870">
        <ele>124.229665</ele>
        <time>2026-07-22T18:39:45.850Z</time>
      </trkpt>
      <trkpt lat="50.762141" lon="30.256654">
        <ele>122.761099</ele>
        <time>2026-07-22T18:40:08.831Z</time>
      </trkpt>
      <trkpt lat="50.761989" lon="30.256466">
        <ele>123.438814</ele>
        <time>2026-07-22T18:40:16.828Z</time>
      </trkpt>
      <trkpt lat="50.761898" lon="30.256353">
        <ele>124.053501</ele>
        <time>2026-07-22T18:40:22.074Z</time>
      </trkpt>
      <trkpt lat="50.760381" lon="30.255053">
        <ele>132.384275</ele>
        <time>2026-07-22T18:41:34.089Z</time>
      </trkpt>
      <trkpt lat="50.758867" lon="30.253967">
        <ele>136.974334</ele>
        <time>2026-07-22T18:42:29.703Z</time>
      </trkpt>
      <trkpt lat="50.750454" lon="30.249250">
        <ele>141.177383</ele>
        <time>2026-07-22T18:46:04.350Z</time>
      </trkpt>
      <trkpt lat="50.745970" lon="30.246731">
        <ele>142.160186</ele>
        <time>2026-07-22T18:47:53.049Z</time>
      </trkpt>
      <trkpt lat="50.745793" lon="30.246671">
        <ele>142.559087</ele>
        <time>2026-07-22T18:48:00.655Z</time>
      </trkpt>
      <trkpt lat="50.745127" lon="30.246447">
        <ele>143.186385</ele>
        <time>2026-07-22T18:48:18.260Z</time>
      </trkpt>
      <trkpt lat="50.740341" lon="30.244834">
        <ele>133.320417</ele>
        <time>2026-07-22T18:49:43.964Z</time>
      </trkpt>
      <trkpt lat="50.736606" lon="30.244038">
        <ele>127.824280</ele>
        <time>2026-07-22T18:50:53.017Z</time>
      </trkpt>
      <trkpt lat="50.734711" lon="30.243626">
        <ele>134.804727</ele>
        <time>2026-07-22T18:52:05.655Z</time>
      </trkpt>
      <trkpt lat="50.733670" lon="30.243584">
        <ele>134.959933</ele>
        <time>2026-07-22T18:52:28.374Z</time>
      </trkpt>
      <trkpt lat="50.731995" lon="30.243551">
        <ele>132.409461</ele>
        <time>2026-07-22T18:52:59.266Z</time>
      </trkpt>
      <trkpt lat="50.730823" lon="30.243549">
        <ele>128.379764</ele>
        <time>2026-07-22T18:53:18.005Z</time>
      </trkpt>
      <trkpt lat="50.730596" lon="30.243554">
        <ele>127.473184</ele>
        <time>2026-07-22T18:53:21.583Z</time>
      </trkpt>
      <trkpt lat="50.730351" lon="30.243515">
        <ele>126.388791</ele>
        <time>2026-07-22T18:53:25.359Z</time>
      </trkpt>
      <trkpt lat="50.730015" lon="30.243302">
        <ele>124.713842</ele>
        <time>2026-07-22T18:53:30.903Z</time>
      </trkpt>
      <trkpt lat="50.729925" lon="30.243178">
        <ele>124.171966</ele>
        <time>2026-07-22T18:53:32.733Z</time>
      </trkpt>
      <trkpt lat="50.729576" lon="30.242626">
        <ele>121.769374</ele>
        <time>2026-07-22T18:53:40.165Z</time>
      </trkpt>
      <trkpt lat="50.729491" lon="30.242373">
        <ele>121.189774</ele>
        <time>2026-07-22T18:53:43.134Z</time>
      </trkpt>
      <trkpt lat="50.729418" lon="30.241368">
        <ele>120.277486</ele>
        <time>2026-07-22T18:53:55.303Z</time>
      </trkpt>
      <trkpt lat="50.729382" lon="30.241282">
        <ele>120.142463</ele>
        <time>2026-07-22T18:53:56.370Z</time>
      </trkpt>
      <trkpt lat="50.729290" lon="30.241188">
        <ele>119.679607</ele>
        <time>2026-07-22T18:53:58.075Z</time>
      </trkpt>
      <trkpt lat="50.729054" lon="30.241061">
        <ele>118.596035</ele>
        <time>2026-07-22T18:54:01.911Z</time>
      </trkpt>
      <trkpt lat="50.728857" lon="30.241001">
        <ele>117.588304</ele>
        <time>2026-07-22T18:54:04.991Z</time>
      </trkpt>
      <trkpt lat="50.728776" lon="30.240992">
        <ele>117.146169</ele>
        <time>2026-07-22T18:54:06.185Z</time>
      </trkpt>
      <trkpt lat="50.728634" lon="30.240955">
        <ele>116.407034</ele>
        <time>2026-07-22T18:54:08.265Z</time>
      </trkpt>
      <trkpt lat="50.728191" lon="30.240903">
        <ele>115.083449</ele>
        <time>2026-07-22T18:54:15.518Z</time>
      </trkpt>
      <trkpt lat="50.727874" lon="30.240886">
        <ele>115.329788</ele>
        <time>2026-07-22T18:54:24.631Z</time>
      </trkpt>
      <trkpt lat="50.727793" lon="30.240881">
        <ele>115.343923</ele>
        <time>2026-07-22T18:54:26.560Z</time>
      </trkpt>
      <trkpt lat="50.726745" lon="30.240822">
        <ele>115.058359</ele>
        <time>2026-07-22T18:54:48.507Z</time>
      </trkpt>
      <trkpt lat="50.726242" lon="30.240592">
        <ele>116.043555</ele>
        <time>2026-07-22T18:55:03.129Z</time>
      </trkpt>
      <trkpt lat="50.725183" lon="30.239918">
        <ele>123.497665</ele>
        <time>2026-07-22T18:56:00.328Z</time>
      </trkpt>
      <trkpt lat="50.725072" lon="30.239739">
        <ele>124.160196</ele>
        <time>2026-07-22T18:56:06.351Z</time>
      </trkpt>
      <trkpt lat="50.724736" lon="30.238591">
        <ele>124.257813</ele>
        <time>2026-07-22T18:56:22.827Z</time>
      </trkpt>
      <trkpt lat="50.724449" lon="30.237800">
        <ele>127.307930</ele>
        <time>2026-07-22T18:56:49.797Z</time>
      </trkpt>
      <trkpt lat="50.724313" lon="30.237569">
        <ele>128.149407</ele>
        <time>2026-07-22T18:56:57.462Z</time>
      </trkpt>
      <trkpt lat="50.723900" lon="30.237057">
        <ele>129.444276</ele>
        <time>2026-07-22T18:57:14.154Z</time>
      </trkpt>
      <trkpt lat="50.723605" lon="30.236777">
        <ele>130.037789</ele>
        <time>2026-07-22T18:57:23.718Z</time>
      </trkpt>
      <trkpt lat="50.720980" lon="30.233744">
        <ele>138.107329</ele>
        <time>2026-07-22T18:59:09.354Z</time>
      </trkpt>
      <trkpt lat="50.719092" lon="30.231005">
        <ele>139.086094</ele>
        <time>2026-07-22T19:00:09.681Z</time>
      </trkpt>
      <trkpt lat="50.717617" lon="30.228950">
        <ele>139.084151</ele>
        <time>2026-07-22T19:00:53.388Z</time>
      </trkpt>
      <trkpt lat="50.716623" lon="30.227368">
        <ele>138.693539</ele>
        <time>2026-07-22T19:01:23.480Z</time>
      </trkpt>
      <trkpt lat="50.716104" lon="30.226167">
        <ele>138.327487</ele>
        <time>2026-07-22T19:01:42.515Z</time>
      </trkpt>
      <trkpt lat="50.715922" lon="30.225804">
        <ele>138.419038</ele>
        <time>2026-07-22T19:01:49.449Z</time>
      </trkpt>
      <trkpt lat="50.715538" lon="30.225155">
        <ele>138.735086</ele>
        <time>2026-07-22T19:02:03.446Z</time>
      </trkpt>
      <trkpt lat="50.713459" lon="30.221778">
        <ele>137.031580</ele>
        <time>2026-07-22T19:03:03.908Z</time>
      </trkpt>
      <trkpt lat="50.713142" lon="30.221317">
        <ele>137.237257</ele>
        <time>2026-07-22T19:03:14.249Z</time>
      </trkpt>
      <trkpt lat="50.712617" lon="30.220839">
        <ele>138.145795</ele>
        <time>2026-07-22T19:03:31.271Z</time>
      </trkpt>
      <trkpt lat="50.711863" lon="30.220552">
        <ele>139.837030</ele>
        <time>2026-07-22T19:03:55.825Z</time>
      </trkpt>
      <trkpt lat="50.710887" lon="30.220235">
        <ele>140.415412</ele>
        <time>2026-07-22T19:04:19.560Z</time>
      </trkpt>
      <trkpt lat="50.710013" lon="30.219955">
        <ele>141.682113</ele>
        <time>2026-07-22T19:04:45.440Z</time>
      </trkpt>
      <trkpt lat="50.708016" lon="30.219290">
        <ele>142.577094</ele>
        <time>2026-07-22T19:05:34.335Z</time>
      </trkpt>
      <trkpt lat="50.707525" lon="30.219046">
        <ele>141.790811</ele>
        <time>2026-07-22T19:05:43.587Z</time>
      </trkpt>
      <trkpt lat="50.707259" lon="30.218807">
        <ele>141.235643</ele>
        <time>2026-07-22T19:05:49.023Z</time>
      </trkpt>
      <trkpt lat="50.707049" lon="30.218542">
        <ele>140.946538</ele>
        <time>2026-07-22T19:05:53.990Z</time>
      </trkpt>
      <trkpt lat="50.705953" lon="30.216897">
        <ele>140.086713</ele>
        <time>2026-07-22T19:06:25.022Z</time>
      </trkpt>
      <trkpt lat="50.705603" lon="30.216465">
        <ele>139.722431</ele>
        <time>2026-07-22T19:06:33.785Z</time>
      </trkpt>
      <trkpt lat="50.705223" lon="30.216177">
        <ele>139.672883</ele>
        <time>2026-07-22T19:06:42.717Z</time>
      </trkpt>
      <trkpt lat="50.702796" lon="30.215063">
        <ele>144.475553</ele>
        <time>2026-07-22T19:07:59.018Z</time>
      </trkpt>
      <trkpt lat="50.702163" lon="30.214904">
        <ele>144.194056</ele>
        <time>2026-07-22T19:08:11.840Z</time>
      </trkpt>
      <trkpt lat="50.701560" lon="30.215101">
        <ele>143.734125</ele>
        <time>2026-07-22T19:08:24.124Z</time>
      </trkpt>
      <trkpt lat="50.700101" lon="30.215467">
        <ele>143.522259</ele>
        <time>2026-07-22T19:08:56.447Z</time>
      </trkpt>
      <trkpt lat="50.698935" lon="30.215673">
        <ele>142.294142</ele>
        <time>2026-07-22T19:09:18.809Z</time>
      </trkpt>
      <trkpt lat="50.698523" lon="30.215668">
        <ele>141.804928</ele>
        <time>2026-07-22T19:09:26.670Z</time>
      </trkpt>
      <trkpt lat="50.698169" lon="30.215607">
        <ele>141.403006</ele>
        <time>2026-07-22T19:09:33.420Z</time>
      </trkpt>
      <trkpt lat="50.697497" lon="30.215401">
        <ele>140.773795</ele>
        <time>2026-07-22T19:09:46.606Z</time>
      </trkpt>
      <trkpt lat="50.694056" lon="30.214269">
        <ele>145.383864</ele>
        <time>2026-07-22T19:11:24.022Z</time>
      </trkpt>
      <trkpt lat="50.690601" lon="30.213122">
        <ele>142.205344</ele>
        <time>2026-07-22T19:12:33.272Z</time>
      </trkpt>
      <trkpt lat="50.690156" lon="30.212976">
        <ele>140.310165</ele>
        <time>2026-07-22T19:12:42.370Z</time>
      </trkpt>
      <trkpt lat="50.689387" lon="30.212677">
        <ele>141.824047</ele>
        <time>2026-07-22T19:13:14.807Z</time>
      </trkpt>
      <trkpt lat="50.688276" lon="30.212293">
        <ele>142.827343</ele>
        <time>2026-07-22T19:13:43.548Z</time>
      </trkpt>
      <trkpt lat="50.687835" lon="30.211998">
        <ele>143.539885</ele>
        <time>2026-07-22T19:13:57.395Z</time>
      </trkpt>
      <trkpt lat="50.687488" lon="30.211606">
        <ele>143.514809</ele>
        <time>2026-07-22T19:14:07.075Z</time>
      </trkpt>
      <trkpt lat="50.687005" lon="30.210942">
        <ele>141.856810</ele>
        <time>2026-07-22T19:14:17.596Z</time>
      </trkpt>
      <trkpt lat="50.685669" lon="30.209156">
        <ele>143.060717</ele>
        <time>2026-07-22T19:15:02.811Z</time>
      </trkpt>
      <trkpt lat="50.685347" lon="30.208775">
        <ele>142.421964</ele>
        <time>2026-07-22T19:15:10.049Z</time>
      </trkpt>
      <trkpt lat="50.684938" lon="30.208503">
        <ele>141.020825</ele>
        <time>2026-07-22T19:15:17.263Z</time>
      </trkpt>
      <trkpt lat="50.682478" lon="30.208020">
        <ele>131.458172</ele>
        <time>2026-07-22T19:15:56.048Z</time>
      </trkpt>
      <trkpt lat="50.679888" lon="30.207191">
        <ele>133.328554</ele>
        <time>2026-07-22T19:17:04.714Z</time>
      </trkpt>
      <trkpt lat="50.678334" lon="30.206687">
        <ele>129.673910</ele>
        <time>2026-07-22T19:17:31.619Z</time>
      </trkpt>
      <trkpt lat="50.677428" lon="30.206206">
        <ele>130.277693</ele>
        <time>2026-07-22T19:17:55.270Z</time>
      </trkpt>
      <trkpt lat="50.676953" lon="30.205951">
        <ele>131.423097</ele>
        <time>2026-07-22T19:18:11.957Z</time>
      </trkpt>
      <trkpt lat="50.676795" lon="30.205917">
        <ele>131.624621</ele>
        <time>2026-07-22T19:18:16.253Z</time>
      </trkpt>
      <trkpt lat="50.676617" lon="30.205892">
        <ele>131.680978</ele>
        <time>2026-07-22T19:18:20.185Z</time>
      </trkpt>
      <trkpt lat="50.676143" lon="30.205949">
        <ele>131.507940</ele>
        <time>2026-07-22T19:18:30.076Z</time>
      </trkpt>
      <trkpt lat="50.675774" lon="30.206037">
        <ele>131.441530</ele>
        <time>2026-07-22T19:18:38.117Z</time>
      </trkpt>
      <trkpt lat="50.675436" lon="30.206117">
        <ele>131.988222</ele>
        <time>2026-07-22T19:18:47.297Z</time>
      </trkpt>
      <trkpt lat="50.674211" lon="30.206409">
        <ele>137.344978</ele>
        <time>2026-07-22T19:19:37.350Z</time>
      </trkpt>
      <trkpt lat="50.672749" lon="30.206707">
        <ele>141.721040</ele>
        <time>2026-07-22T19:20:26.169Z</time>
      </trkpt>
      <trkpt lat="50.672319" lon="30.206892">
        <ele>144.797962</ele>
        <time>2026-07-22T19:20:51.493Z</time>
      </trkpt>
      <trkpt lat="50.671965" lon="30.207133">
        <ele>145.574373</ele>
        <time>2026-07-22T19:21:01.826Z</time>
      </trkpt>
      <trkpt lat="50.670940" lon="30.207933">
        <ele>144.982903</ele>
        <time>2026-07-22T19:21:24.814Z</time>
      </trkpt>
      <trkpt lat="50.670626" lon="30.208178">
        <ele>145.084613</ele>
        <time>2026-07-22T19:21:33.539Z</time>
      </trkpt>
      <trkpt lat="50.670174" lon="30.206812">
        <ele>142.892767</ele>
        <time>2026-07-22T19:21:50.198Z</time>
      </trkpt>
      <trkpt lat="50.669606" lon="30.205600">
        <ele>141.819246</ele>
        <time>2026-07-22T19:22:08.775Z</time>
      </trkpt>
      <trkpt lat="50.669415" lon="30.205247">
        <ele>141.444750</ele>
        <time>2026-07-22T19:22:13.753Z</time>
      </trkpt>
      <trkpt lat="50.668589" lon="30.203715">
        <ele>144.951598</ele>
        <time>2026-07-22T19:22:59.338Z</time>
      </trkpt>
      <trkpt lat="50.667738" lon="30.202140">
        <ele>142.780673</ele>
        <time>2026-07-22T19:23:22.277Z</time>
      </trkpt>
      <trkpt lat="50.667512" lon="30.201314">
        <ele>142.187766</ele>
        <time>2026-07-22T19:23:33.319Z</time>
      </trkpt>
      <trkpt lat="50.667402" lon="30.200955">
        <ele>141.843607</ele>
        <time>2026-07-22T19:23:38.073Z</time>
      </trkpt>
      <trkpt lat="50.665206" lon="30.197112">
        <ele>131.843568</ele>
        <time>2026-07-22T19:24:31.824Z</time>
      </trkpt>
      <trkpt lat="50.664321" lon="30.195494">
        <ele>131.015882</ele>
        <time>2026-07-22T19:24:59.467Z</time>
      </trkpt>
      <trkpt lat="50.664033" lon="30.194966">
        <ele>131.110452</ele>
        <time>2026-07-22T19:25:09.102Z</time>
      </trkpt>
      <trkpt lat="50.662676" lon="30.192481">
        <ele>138.172838</ele>
        <time>2026-07-22T19:26:24.909Z</time>
      </trkpt>
      <trkpt lat="50.661431" lon="30.190204">
        <ele>139.514782</ele>
        <time>2026-07-22T19:27:12.192Z</time>
      </trkpt>
      <trkpt lat="50.659912" lon="30.187357">
        <ele>141.500402</ele>
        <time>2026-07-22T19:28:12.514Z</time>
      </trkpt>
      <trkpt lat="50.659010" lon="30.185666">
        <ele>142.692775</ele>
        <time>2026-07-22T19:28:48.322Z</time>
      </trkpt>
      <trkpt lat="50.657935" lon="30.183710">
        <ele>143.712039</ele>
        <time>2026-07-22T19:29:28.858Z</time>
      </trkpt>
      <trkpt lat="50.657185" lon="30.182346">
        <ele>144.594846</ele>
        <time>2026-07-22T19:29:58.036Z</time>
      </trkpt>
      <trkpt lat="50.656640" lon="30.181354">
        <ele>145.152733</ele>
        <time>2026-07-22T19:30:18.900Z</time>
      </trkpt>
      <trkpt lat="50.655789" lon="30.179807">
        <ele>144.588887</ele>
        <time>2026-07-22T19:30:45.839Z</time>
      </trkpt>
      <trkpt lat="50.655704" lon="30.179653">
        <ele>144.810773</ele>
        <time>2026-07-22T19:30:48.348Z</time>
      </trkpt>
      <trkpt lat="50.655052" lon="30.178461">
        <ele>147.092982</ele>
        <time>2026-07-22T19:31:21.420Z</time>
      </trkpt>
      <trkpt lat="50.654351" lon="30.177198">
        <ele>146.900380</ele>
        <time>2026-07-22T19:31:44.114Z</time>
      </trkpt>
      <trkpt lat="50.653876" lon="30.176314">
        <ele>145.620573</ele>
        <time>2026-07-22T19:31:57.050Z</time>
      </trkpt>
      <trkpt lat="50.653405" lon="30.175425">
        <ele>146.359816</ele>
        <time>2026-07-22T19:32:17.097Z</time>
      </trkpt>
      <trkpt lat="50.653093" lon="30.174209">
        <ele>146.685730</ele>
        <time>2026-07-22T19:32:36.842Z</time>
      </trkpt>
      <trkpt lat="50.652808" lon="30.174053">
        <ele>146.421473</ele>
        <time>2026-07-22T19:32:43.284Z</time>
      </trkpt>
      <trkpt lat="50.652496" lon="30.173754">
        <ele>144.815988</ele>
        <time>2026-07-22T19:32:48.615Z</time>
      </trkpt>
      <trkpt lat="50.652240" lon="30.173343">
        <ele>145.557662</ele>
        <time>2026-07-22T19:33:01.645Z</time>
      </trkpt>
      <trkpt lat="50.651511" lon="30.171962">
        <ele>147.810510</ele>
        <time>2026-07-22T19:33:36.194Z</time>
      </trkpt>
      <trkpt lat="50.650795" lon="30.170199">
        <ele>146.123654</ele>
        <time>2026-07-22T19:34:00.945Z</time>
      </trkpt>
      <trkpt lat="50.650448" lon="30.169444">
        <ele>144.926424</ele>
        <time>2026-07-22T19:34:11.102Z</time>
      </trkpt>
      <trkpt lat="50.650248" lon="30.169169">
        <ele>145.256373</ele>
        <time>2026-07-22T19:34:18.608Z</time>
      </trkpt>
      <trkpt lat="50.649959" lon="30.168917">
        <ele>146.141580</ele>
        <time>2026-07-22T19:34:29.427Z</time>
      </trkpt>
      <trkpt lat="50.649801" lon="30.168824">
        <ele>146.614045</ele>
        <time>2026-07-22T19:34:35.505Z</time>
      </trkpt>
      <trkpt lat="50.649500" lon="30.168770">
        <ele>147.241208</ele>
        <time>2026-07-22T19:34:44.791Z</time>
      </trkpt>
      <trkpt lat="50.649192" lon="30.168782">
        <ele>147.435439</ele>
        <time>2026-07-22T19:34:52.288Z</time>
      </trkpt>
      <trkpt lat="50.645491" lon="30.170505">
        <ele>144.770320</ele>
        <time>2026-07-22T19:36:09.953Z</time>
      </trkpt>
      <trkpt lat="50.645379" lon="30.170559">
        <ele>144.352555</ele>
        <time>2026-07-22T19:36:11.817Z</time>
      </trkpt>
      <trkpt lat="50.644658" lon="30.170645">
        <ele>139.611781</ele>
        <time>2026-07-22T19:36:22.174Z</time>
      </trkpt>
      <trkpt lat="50.644259" lon="30.170469">
        <ele>138.187515</ele>
        <time>2026-07-22T19:36:28.799Z</time>
      </trkpt>
      <trkpt lat="50.643338" lon="30.170063">
        <ele>139.675123</ele>
        <time>2026-07-22T19:36:56.503Z</time>
      </trkpt>
      <trkpt lat="50.643240" lon="30.169991">
        <ele>140.000082</ele>
        <time>2026-07-22T19:37:00.600Z</time>
      </trkpt>
      <trkpt lat="50.641389" lon="30.168380">
        <ele>146.245020</ele>
        <time>2026-07-22T19:38:13.006Z</time>
      </trkpt>
      <trkpt lat="50.640163" lon="30.167317">
        <ele>144.338652</ele>
        <time>2026-07-22T19:38:38.616Z</time>
      </trkpt>
      <trkpt lat="50.633394" lon="30.161580">
        <ele>148.126710</ele>
        <time>2026-07-22T19:41:44.768Z</time>
      </trkpt>
      <trkpt lat="50.630998" lon="30.159638">
        <ele>150.139861</ele>
        <time>2026-07-22T19:42:53.176Z</time>
      </trkpt>
      <trkpt lat="50.630536" lon="30.159295">
        <ele>150.175595</ele>
        <time>2026-07-22T19:43:04.777Z</time>
      </trkpt>
      <trkpt lat="50.629569" lon="30.158774">
        <ele>149.768046</ele>
        <time>2026-07-22T19:43:25.694Z</time>
      </trkpt>
      <trkpt lat="50.623715" lon="30.155829">
        <ele>153.162646</ele>
        <time>2026-07-22T19:45:56.646Z</time>
      </trkpt>
      <trkpt lat="50.622974" lon="30.155417">
        <ele>151.817736</ele>
        <time>2026-07-22T19:46:10.542Z</time>
      </trkpt>
      <trkpt lat="50.622364" lon="30.155147">
        <ele>150.957101</ele>
        <time>2026-07-22T19:46:22.273Z</time>
      </trkpt>
      <trkpt lat="50.621633" lon="30.157079">
        <ele>151.093399</ele>
        <time>2026-07-22T19:46:54.963Z</time>
      </trkpt>
      <trkpt lat="50.621446" lon="30.157593">
        <ele>151.129880</ele>
        <time>2026-07-22T19:47:03.473Z</time>
      </trkpt>
      <trkpt lat="50.621120" lon="30.158574">
        <ele>151.713145</ele>
        <time>2026-07-22T19:47:21.280Z</time>
      </trkpt>
      <trkpt lat="50.621039" lon="30.159182">
        <ele>152.379820</ele>
        <time>2026-07-22T19:47:31.902Z</time>
      </trkpt>
      <trkpt lat="50.620923" lon="30.159415">
        <ele>153.342289</ele>
        <time>2026-07-22T19:47:40.390Z</time>
      </trkpt>
      <trkpt lat="50.620590" lon="30.159902">
        <ele>156.371133</ele>
        <time>2026-07-22T19:48:04.380Z</time>
      </trkpt>
      <trkpt lat="50.619594" lon="30.161374">
        <ele>158.628296</ele>
        <time>2026-07-22T19:48:42.736Z</time>
      </trkpt>
      <trkpt lat="50.619312" lon="30.161841">
        <ele>158.668508</ele>
        <time>2026-07-22T19:48:52.048Z</time>
      </trkpt>
      <trkpt lat="50.618283" lon="30.163382">
        <ele>157.922428</ele>
        <time>2026-07-22T19:49:20.985Z</time>
      </trkpt>
      <trkpt lat="50.617796" lon="30.164196">
        <ele>157.900006</ele>
        <time>2026-07-22T19:49:36.768Z</time>
      </trkpt>
      <trkpt lat="50.617496" lon="30.164559">
        <ele>157.914372</ele>
        <time>2026-07-22T19:49:45.171Z</time>
      </trkpt>
      <trkpt lat="50.617196" lon="30.164848">
        <ele>157.990086</ele>
        <time>2026-07-22T19:49:53.147Z</time>
      </trkpt>
      <trkpt lat="50.615097" lon="30.166493">
        <ele>158.296905</ele>
        <time>2026-07-22T19:50:46.384Z</time>
      </trkpt>
      <trkpt lat="50.613757" lon="30.167513">
        <ele>158.405567</ele>
        <time>2026-07-22T19:51:20.054Z</time>
      </trkpt>
      <trkpt lat="50.610619" lon="30.169780">
        <ele>158.892426</ele>
        <time>2026-07-22T19:52:38.955Z</time>
      </trkpt>
      <trkpt lat="50.610388" lon="30.169979">
        <ele>158.891029</ele>
        <time>2026-07-22T19:52:44.803Z</time>
      </trkpt>
      <trkpt lat="50.609605" lon="30.170794">
        <ele>158.680265</ele>
        <time>2026-07-22T19:53:04.796Z</time>
      </trkpt>
      <trkpt lat="50.608784" lon="30.171320">
        <ele>157.899357</ele>
        <time>2026-07-22T19:53:22.006Z</time>
      </trkpt>
      <trkpt lat="50.607245" lon="30.172146">
        <ele>156.423988</ele>
        <time>2026-07-22T19:53:53.702Z</time>
      </trkpt>
      <trkpt lat="50.600347" lon="30.175568">
        <ele>152.914311</ele>
        <time>2026-07-22T19:56:23.302Z</time>
      </trkpt>
      <trkpt lat="50.599697" lon="30.175858">
        <ele>151.285802</ele>
        <time>2026-07-22T19:56:34.283Z</time>
      </trkpt>
      <trkpt lat="50.599213" lon="30.176146">
        <ele>152.096709</ele>
        <time>2026-07-22T19:56:50.970Z</time>
      </trkpt>
      <trkpt lat="50.596292" lon="30.177568">
        <ele>153.784323</ele>
        <time>2026-07-22T19:58:05.910Z</time>
      </trkpt>
      <trkpt lat="50.596131" lon="30.177646">
        <ele>153.579061</ele>
        <time>2026-07-22T19:58:08.908Z</time>
      </trkpt>
      <trkpt lat="50.595593" lon="30.177882">
        <ele>152.201700</ele>
        <time>2026-07-22T19:58:18.381Z</time>
      </trkpt>
      <trkpt lat="50.595392" lon="30.177926">
        <ele>151.639161</ele>
        <time>2026-07-22T19:58:21.804Z</time>
      </trkpt>
      <trkpt lat="50.595277" lon="30.177903">
        <ele>151.273834</ele>
        <time>2026-07-22T19:58:23.689Z</time>
      </trkpt>
      <trkpt lat="50.594983" lon="30.177586">
        <ele>150.315567</ele>
        <time>2026-07-22T19:58:29.301Z</time>
      </trkpt>
      <trkpt lat="50.594559" lon="30.177053">
        <ele>150.529304</ele>
        <time>2026-07-22T19:58:43.663Z</time>
      </trkpt>
      <trkpt lat="50.594413" lon="30.176960">
        <ele>150.795047</ele>
        <time>2026-07-22T19:58:48.268Z</time>
      </trkpt>
      <trkpt lat="50.594239" lon="30.176928">
        <ele>151.089877</ele>
        <time>2026-07-22T19:58:53.396Z</time>
      </trkpt>
      <trkpt lat="50.592856" lon="30.177005">
        <ele>153.225750</ele>
        <time>2026-07-22T19:59:32.912Z</time>
      </trkpt>
      <trkpt lat="50.592487" lon="30.177132">
        <ele>153.352766</ele>
        <time>2026-07-22T19:59:41.718Z</time>
      </trkpt>
      <trkpt lat="50.592132" lon="30.177349">
        <ele>153.083429</ele>
        <time>2026-07-22T19:59:49.304Z</time>
      </trkpt>
      <trkpt lat="50.591687" lon="30.177635">
        <ele>152.516040</ele>
        <time>2026-07-22T19:59:58.405Z</time>
      </trkpt>
      <trkpt lat="50.591091" lon="30.178093">
        <ele>152.007603</ele>
        <time>2026-07-22T20:00:11.464Z</time>
      </trkpt>
      <trkpt lat="50.590552" lon="30.178552">
        <ele>151.687510</ele>
        <time>2026-07-22T20:00:24.176Z</time>
      </trkpt>
      <trkpt lat="50.585624" lon="30.183338">
        <ele>147.406480</ele>
        <time>2026-07-22T20:02:19.343Z</time>
      </trkpt>
      <trkpt lat="50.585124" lon="30.183871">
        <ele>146.999263</ele>
        <time>2026-07-22T20:02:31.348Z</time>
      </trkpt>
      <trkpt lat="50.583707" lon="30.185539">
        <ele>145.773482</ele>
        <time>2026-07-22T20:03:06.940Z</time>
      </trkpt>
      <trkpt lat="50.582198" lon="30.189460">
        <ele>141.309113</ele>
        <time>2026-07-22T20:04:00.032Z</time>
      </trkpt>
      <trkpt lat="50.581758" lon="30.190515">
        <ele>140.248958</ele>
        <time>2026-07-22T20:04:15.090Z</time>
      </trkpt>
      <trkpt lat="50.581147" lon="30.192149">
        <ele>137.762525</ele>
        <time>2026-07-22T20:04:36.045Z</time>
      </trkpt>
      <trkpt lat="50.579699" lon="30.196186">
        <ele>136.340499</ele>
        <time>2026-07-22T20:05:36.784Z</time>
      </trkpt>
      <trkpt lat="50.578420" lon="30.199827">
        <ele>138.510204</ele>
        <time>2026-07-22T20:06:45.039Z</time>
      </trkpt>
      <trkpt lat="50.577398" lon="30.202553">
        <ele>132.648222</ele>
        <time>2026-07-22T20:07:18.114Z</time>
      </trkpt>
      <trkpt lat="50.576717" lon="30.204185">
        <ele>129.940185</ele>
        <time>2026-07-22T20:07:39.743Z</time>
      </trkpt>
      <trkpt lat="50.576609" lon="30.204454">
        <ele>129.299770</ele>
        <time>2026-07-22T20:07:42.999Z</time>
      </trkpt>
      <trkpt lat="50.576224" lon="30.205413">
        <ele>126.874734</ele>
        <time>2026-07-22T20:07:54.599Z</time>
      </trkpt>
      <trkpt lat="50.575653" lon="30.206910">
        <ele>124.228355</ele>
        <time>2026-07-22T20:08:13.580Z</time>
      </trkpt>
      <trkpt lat="50.575174" lon="30.208249">
        <ele>122.342412</ele>
        <time>2026-07-22T20:08:30.945Z</time>
      </trkpt>
      <trkpt lat="50.573934" lon="30.211660">
        <ele>115.395323</ele>
        <time>2026-07-22T20:09:12.357Z</time>
      </trkpt>
      <trkpt lat="50.573773" lon="30.212123">
        <ele>115.623159</ele>
        <time>2026-07-22T20:09:21.009Z</time>
      </trkpt>
      <trkpt lat="50.573291" lon="30.213515">
        <ele>118.837735</ele>
        <time>2026-07-22T20:09:57.458Z</time>
      </trkpt>
      <trkpt lat="50.573187" lon="30.213641">
        <ele>118.916149</ele>
        <time>2026-07-22T20:10:00.816Z</time>
      </trkpt>
      <trkpt lat="50.573112" lon="30.213657">
        <ele>118.753199</ele>
        <time>2026-07-22T20:10:02.141Z</time>
      </trkpt>
      <trkpt lat="50.572981" lon="30.213611">
        <ele>118.428260</ele>
        <time>2026-07-22T20:10:04.253Z</time>
      </trkpt>
      <trkpt lat="50.571450" lon="30.212877">
        <ele>113.623997</ele>
        <time>2026-07-22T20:10:30.424Z</time>
      </trkpt>
      <trkpt lat="50.569825" lon="30.212035">
        <ele>114.015263</ele>
        <time>2026-07-22T20:11:10.656Z</time>
      </trkpt>
      <trkpt lat="50.569516" lon="30.211873">
        <ele>114.999579</ele>
        <time>2026-07-22T20:11:22.187Z</time>
      </trkpt>
      <trkpt lat="50.569379" lon="30.211804">
        <ele>115.484030</ele>
        <time>2026-07-22T20:11:27.350Z</time>
      </trkpt>
      <trkpt lat="50.569089" lon="30.211649">
        <ele>116.384753</ele>
        <time>2026-07-22T20:11:37.683Z</time>
      </trkpt>
      <trkpt lat="50.568875" lon="30.211534">
        <ele>116.976422</ele>
        <time>2026-07-22T20:11:45.177Z</time>
      </trkpt>
      <trkpt lat="50.568666" lon="30.211436">
        <ele>117.322208</ele>
        <time>2026-07-22T20:11:51.873Z</time>
      </trkpt>
      <trkpt lat="50.568703" lon="30.211831">
        <ele>117.130975</ele>
        <time>2026-07-22T20:11:56.968Z</time>
      </trkpt>
      <trkpt lat="50.568652" lon="30.213171">
        <ele>115.589543</ele>
        <time>2026-07-22T20:12:12.648Z</time>
      </trkpt>
      <trkpt lat="50.568654" lon="30.214371">
        <ele>115.224619</ele>
        <time>2026-07-22T20:12:29.265Z</time>
      </trkpt>
      <trkpt lat="50.568657" lon="30.216834">
        <ele>115.239680</ele>
        <time>2026-07-22T20:13:05.948Z</time>
      </trkpt>
      <trkpt lat="50.568672" lon="30.217903">
        <ele>114.587615</ele>
        <time>2026-07-22T20:13:19.582Z</time>
      </trkpt>
      <trkpt lat="50.568700" lon="30.219905">
        <ele>113.012443</ele>
        <time>2026-07-22T20:13:44.612Z</time>
      </trkpt>
      <trkpt lat="50.568709" lon="30.220535">
        <ele>112.732904</ele>
        <time>2026-07-22T20:13:52.866Z</time>
      </trkpt>
      <trkpt lat="50.568780" lon="30.220898">
        <ele>113.211943</ele>
        <time>2026-07-22T20:14:01.531Z</time>
      </trkpt>
      <trkpt lat="50.568918" lon="30.221147">
        <ele>112.983141</ele>
        <time>2026-07-22T20:14:05.563Z</time>
      </trkpt>
      <trkpt lat="50.569109" lon="30.221351">
        <ele>112.056401</ele>
        <time>2026-07-22T20:14:09.190Z</time>
      </trkpt>
      <trkpt lat="50.570216" lon="30.222459">
        <ele>110.754860</ele>
        <time>2026-07-22T20:14:35.899Z</time>
      </trkpt>
      <trkpt lat="50.570329" lon="30.222640">
        <ele>110.787011</ele>
        <time>2026-07-22T20:14:39.997Z</time>
      </trkpt>
      <trkpt lat="50.570371" lon="30.222743">
        <ele>110.812133</ele>
        <time>2026-07-22T20:14:42.021Z</time>
      </trkpt>
      <trkpt lat="50.570422" lon="30.223056">
        <ele>110.869757</ele>
        <time>2026-07-22T20:14:47.083Z</time>
      </trkpt>
      <trkpt lat="50.570422" lon="30.223958">
        <ele>110.658067</ele>
        <time>2026-07-22T20:14:59.562Z</time>
      </trkpt>
      <trkpt lat="50.570400" lon="30.224204">
        <ele>110.584798</ele>
        <time>2026-07-22T20:15:02.657Z</time>
      </trkpt>
      <trkpt lat="50.570400" lon="30.224302">
        <ele>110.638070</ele>
        <time>2026-07-22T20:15:04.117Z</time>
      </trkpt>
      <trkpt lat="50.570399" lon="30.224625">
        <ele>110.788352</ele>
        <time>2026-07-22T20:15:10.404Z</time>
      </trkpt>
      <trkpt lat="50.570357" lon="30.224637">
        <ele>110.810026</ele>
        <time>2026-07-22T20:15:11.540Z</time>
      </trkpt>
      <trkpt lat="50.570399" lon="30.224625">
        <ele>110.831700</ele>
        <time>2026-07-22T20:15:12.589Z</time>
      </trkpt>
      <trkpt lat="50.570400" lon="30.226913">
        <ele>110.191187</ele>
        <time>2026-07-22T20:15:43.793Z</time>
      </trkpt>
      <trkpt lat="50.570386" lon="30.227188">
        <ele>110.104130</ele>
        <time>2026-07-22T20:15:47.336Z</time>
      </trkpt>
      <trkpt lat="50.569991" lon="30.228124">
        <ele>111.509214</ele>
        <time>2026-07-22T20:16:09.766Z</time>
      </trkpt>
      <trkpt lat="50.569538" lon="30.229196">
        <ele>113.446024</ele>
        <time>2026-07-22T20:16:36.149Z</time>
      </trkpt>
      <trkpt lat="50.568849" lon="30.230821">
        <ele>117.555368</ele>
        <time>2026-07-22T20:17:21.566Z</time>
      </trkpt>
      <trkpt lat="50.568590" lon="30.231217">
        <ele>119.144518</ele>
        <time>2026-07-22T20:17:36.168Z</time>
      </trkpt>
      <trkpt lat="50.568465" lon="30.231210">
        <ele>119.888696</ele>
        <time>2026-07-22T20:17:41.864Z</time>
      </trkpt>
      <trkpt lat="50.568279" lon="30.231211">
        <ele>121.108336</ele>
        <time>2026-07-22T20:17:51.421Z</time>
      </trkpt>
      <trkpt lat="50.567888" lon="30.231212">
        <ele>123.826282</ele>
        <time>2026-07-22T20:18:11.665Z</time>
      </trkpt>
      <trkpt lat="50.566735" lon="30.231149">
        <ele>129.013705</ele>
        <time>2026-07-22T20:18:59.760Z</time>
      </trkpt>
      <trkpt lat="50.565476" lon="30.231110">
        <ele>129.697317</ele>
        <time>2026-07-22T20:19:29.825Z</time>
      </trkpt>
      <trkpt lat="50.564011" lon="30.231064">
        <ele>130.226544</ele>
        <time>2026-07-22T20:20:04.272Z</time>
      </trkpt>
      <trkpt lat="50.563775" lon="30.231058">
        <ele>130.546118</ele>
        <time>2026-07-22T20:20:10.569Z</time>
      </trkpt>
      <trkpt lat="50.562814" lon="30.231061">
        <ele>133.338140</ele>
        <time>2026-07-22T20:20:43.275Z</time>
      </trkpt>
      <trkpt lat="50.562140" lon="30.231081">
        <ele>135.596800</ele>
        <time>2026-07-22T20:21:08.209Z</time>
      </trkpt>
      <trkpt lat="50.562142" lon="30.230816">
        <ele>135.860702</ele>
        <time>2026-07-22T20:21:12.295Z</time>
      </trkpt>
      <trkpt lat="50.562168" lon="30.225963">
        <ele>138.463629</ele>
        <time>2026-07-22T20:22:31.183Z</time>
      </trkpt>
      <trkpt lat="50.562180" lon="30.223720">
        <ele>142.208921</ele>
        <time>2026-07-22T20:23:18.717Z</time>
      </trkpt>
      <trkpt lat="50.562246" lon="30.223724">
        <ele>142.251041</ele>
        <time>2026-07-22T20:23:20.439Z</time>
      </trkpt>
      <trkpt lat="50.562275" lon="30.220056">
        <ele>142.119974</ele>
        <time>2026-07-22T20:26:02.384Z</time>
      </trkpt>
    </trkseg>
  </trk>
</gpx>